place_name,latitude,longitude,destination_city
Marina Beach,13.0534,80.2834,Chennai
Elliot's Beach,12.9995,80.2724,Chennai
Besant Nagar Beach,12.9996,80.2682,Chennai
Thiruvanmiyur Beach,12.9816,80.2608,Chennai
Covelong Beach,12.7922,80.2546,Chennai
Neelankarai Beach,12.9492,80.2589,Chennai
Breezy Beach,13.0078,80.2792,Chennai
Palavakkam Beach,12.9621,80.2541,Chennai
Injambakkam Beach,12.9102,80.2479,Chennai
Santhome Beach,13.0338,80.2778,Chennai
Olcott Memorial Beach,13.0425,80.2801,Chennai
Broken Bridge Beach,13.0401,80.2814,Chennai
Bharathi Nagar Beach,13.0456,80.2825,Chennai
Kapaleeshwarar Temple,13.0337,80.2698,Chennai
Parthasarathy Temple,13.0351,80.2734,Chennai
Vadapalani Murugan Temple,13.0512,80.2125,Chennai
Ashtalakshmi Temple,12.9991,80.2726,Chennai
Marundeeswarar Temple,13.0385,80.2421,Chennai
Shirdi Sai Baba Temple,13.0445,80.2231,Chennai
Kandaswamy Temple,13.0445,80.2214,Chennai
Adyar Shiva Temple,13.0001,80.2574,Chennai
Thiruvalluvar Temple,13.0821,80.2782,Chennai
Kalikambal Temple,13.0855,80.2796,Chennai
Mahabalipuram Shore Temple,12.6169,80.1977,Chennai
Santhome Cathedral Basilica,13.0338,80.2778,Chennai
San Thome Church,13.0338,80.2778,Chennai
Luz Church,13.0321,80.2584,Chennai
St. Mary's Church,13.0815,80.2882,Chennai
Fort St. George Museum,13.0795,80.2874,Chennai
Government Museum,13.0714,80.2565,Chennai
DakshinaChitra Museum,12.8172,80.2442,Chennai
Gandhi Mandapam,13.0521,80.2812,Chennai
Vivekananda House,13.0352,80.2741,Chennai
Birla Planetarium,13.0608,80.2453,Chennai
Egmore Museum Complex,13.0714,80.2565,Chennai
Ayurveda College Museum,13.0312,80.2654,Chennai
Guindy National Park,13.0071,80.2263,Chennai
Semmozhi Poonga,13.0602,80.2462,Chennai
Nageswara Rao Park,13.0321,80.2684,Chennai
Theosophical Society,13.0024,80.2611,Chennai
Arignar Anna Zoological Park,12.8892,80.0812,Chennai
Madras Crocodile Bank,12.7458,80.2338,Chennai
Express Avenue Mall,13.0591,80.2614,Chennai
Phoenix Marketcity,13.0107,80.2207,Chennai
Forum Vijaya Mall,13.0152,80.2331,Chennai
Spencer Plaza,13.0625,80.2692,Chennai
Ampa Skywalk Mall,13.0612,80.2102,Chennai
VR Chennai,13.0001,80.2558,Chennai
Chennai Citi Centre,13.0318,80.2154,Chennai
Grand Square Mall,13.0207,80.2218,Chennai
Alsa Mall,13.0651,80.2124,Chennai
Pondy Bazaar,13.0512,80.2402,Chennai
Parrys Corner Market,13.0892,80.2814,Chennai
Sowcarpet Market,13.0921,80.2784,Chennai
Ranganathan Street,13.0448,80.2342,Chennai
T Nagar Shopping District,13.0407,80.2341,Chennai
Fort St George,13.0795,80.2874,Chennai
Valluvar Kottam,13.0521,80.2345,Chennai
Ripon Building,13.0802,80.2792,Chennai
High Court Building,13.0812,80.2881,Chennai
Connemara Public Library,13.0714,80.2571,Chennai
George Town Heritage Area,13.0895,80.2825,Chennai
Mylapore Heritage Walk,13.0337,80.2698,Chennai
Anna Memorial,13.0532,80.2851,Chennai
MGR Memorial,13.0542,80.2865,Chennai
Arjuna's Penance,12.6189,80.1922,Chennai
Five Rathas,12.6192,80.1925,Chennai
MGR Film City,13.0124,80.2381,Chennai
Snow Kingdom,13.0112,80.2192,Chennai
Kishkinta Theme Park,12.8501,80.0421,Chennai
VGP Marine Kingdom,12.9721,80.2541,Chennai
VGP Universal Kingdom,12.9721,80.2551,Chennai
Saravana Bhavan,13.0621,80.2612,Chennai
Murugan Idli Shop,13.0381,80.2412,Chennai
Buhari Hotel,13.0842,80.2795,Chennai
Annalakshmi Restaurant,13.0008,80.2591,Chennai
Madras Coffee House,13.0381,80.2402,Chennai
Cafe Madras,13.0448,80.2332,Chennai
Gokulam Restaurant,13.0512,80.2392,Chennai
Sangeetha Restaurant,13.0591,80.2614,Chennai
Adyar Ananda Bhavan,13.0015,80.2581,Chennai
Ratna Cafe,13.0384,80.2452,Chennai
Woodlands Drive-In,13.0421,80.2362,Chennai
Amethyst Cafe,13.0335,80.2578,Chennai
The Flying Elephant,13.0624,80.2701,Chennai
Copper Chimney,13.0612,80.2452,Chennai
Dakshin Restaurant,13.0024,80.2591,Chennai
Pumpkin Tales,13.0642,80.2642,Chennai
Naturally Auroville,13.0321,80.2564,Chennai
Chamiers Cafe,13.0312,80.2542,Chennai
Tuscana Pizzeria,13.0624,80.2642,Chennai
Writers Cafe,13.0638,80.2684,Chennai
The Brew Room,13.0601,80.2631,Chennai
Ciclo Cafe,13.0321,80.2584,Chennai
Kasi Theatre Coffee,13.0291,80.2512,Chennai
Kalakshetra Foundation,13.0084,80.2592,Chennai
Cholamandal Artists Village,12.9045,80.2421,Chennai
Kalakendra Art Gallery,13.0291,80.2545,Chennai
Muttukadu Boat House,12.8124,80.2362,Chennai
Bay of Life Water Sports,12.9991,80.2732,Chennai
Thiruthani Murugan Temple,13.1719,79.6038,Tiruvallur
Veeraraghava Perumal Temple,13.1231,79.9120,Tiruvallur
Sri Vadaranyeswarar Temple,13.1231,79.9120,Tiruvallur
Panchamukha Anjaneyar Temple,13.1231,79.9120,Tiruvallur
Siruvapuri Balamurugan Temple,13.1759,79.6164,Tiruvallur
Vaseeswarar Temple Thirupachur,13.1231,79.9120,Tiruvallur
Bhaktavatsala Perumal Temple,13.1231,79.9120,Tiruvallur
Oondreeswarar Shiva Temple,13.1231,79.9120,Tiruvallur
Masilamaniswara Temple,13.1231,79.9120,Tiruvallur
Kadambathur Murugan Temple,13.1759,79.6164,Tiruvallur
Thyagaraja Temple Thiruvottiyur,13.1643,80.3007,Tiruvallur
Sri Veera Anjaneya Temple,13.1231,79.9120,Tiruvallur
Jagannatha Perumal Temple,13.1231,79.9120,Tiruvallur
Bhavani Amman Temple Periyapalayam,13.1231,79.9120,Tiruvallur
Devadhanam Temple,13.1231,79.9120,Tiruvallur
Sri Beteraya Swamy Temple,13.1231,79.9120,Tiruvallur
Pulicat Lake,13.4167,80.3167,Tiruvallur
Pulicat Bird Sanctuary,13.5667,80.2000,Tiruvallur
Poondi Reservoir,13.1850,79.8600,Tiruvallur
Chembarambakkam Lake,13.0114,80.0591,Tiruvallur
Ponneri Lake,13.3333,80.1833,Tiruvallur
Red Hills Lake,13.1580,80.1730,Tiruvallur
Pulicat Lagoon Boat Ride,13.4167,80.3167,Tiruvallur
Ponneri Beach,13.3333,80.1833,Tiruvallur
Kattupalli Beach,13.2167,80.3167,Tiruvallur
Ennore Beach,13.2167,80.3167,Tiruvallur
Pulicat Beach,13.4167,80.3167,Tiruvallur
Gudiyam Caves,12.9167,80.0833,Tiruvallur
Dutch Cemetery Pulicat,13.4167,80.3167,Tiruvallur
Dutch Church Pulicat,13.4167,80.3167,Tiruvallur
Ponneri Fort,13.3333,80.1833,Tiruvallur
Pulicat Lighthouse,13.4167,80.3167,Tiruvallur
Queensland Amusement Park,13.0300,80.0275,Tiruvallur
Peria Puliyur Forest,13.1231,79.9120,Tiruvallur
Community Park Tiruvallur,13.1231,79.9120,Tiruvallur
Vetri Garden Free Park,13.1231,79.9120,Tiruvallur
Suncity Park,13.1231,79.9120,Tiruvallur
Ngo Colony Park,13.1231,79.9120,Tiruvallur
Poondi Madha Basilica,13.2086,79.8773,Tiruvallur
St. Anthony's Church Ponneri,13.3333,80.1833,Tiruvallur
Sacred Heart Church Tiruvallur,13.1231,79.9120,Tiruvallur
Tiruvallur Main Market,13.1231,79.9120,Tiruvallur
Ponneri Local Market,13.3333,80.1833,Tiruvallur
Gummidipundi Market,13.4000,80.1167,Tiruvallur
Thiruthani Market Street,13.1759,79.6164,Tiruvallur
Anjappar Chettinad Restaurant,13.1231,79.9120,Tiruvallur
Saravana Bhavan Tiruvallur,13.1231,79.9120,Tiruvallur
Hotel Aryaas,13.1231,79.9120,Tiruvallur
Murugan Idli Shop Tiruvallur,13.1231,79.9120,Tiruvallur
SS Hyderabad Biryani,13.1231,79.9120,Tiruvallur
Thiruthani Darshini Restaurant,13.1759,79.6164,Tiruvallur
Ponneri Hotel Annapoorna,13.3333,80.1833,Tiruvallur
Gummidipundi Sangeetha Restaurant,13.4000,80.1167,Tiruvallur
A2B - Adyar Ananda Bhavan,13.1231,79.9120,Tiruvallur
Cafe Coffee Day Tiruvallur,13.1231,79.9120,Tiruvallur
Pulicat Fishing Experience,13.4167,80.3167,Tiruvallur
Ponneri Lake Boating,13.3333,80.1833,Tiruvallur
Pulicat Flamingo Watching,13.4167,80.3167,Tiruvallur
Ponneri Fish Market,13.3333,80.1833,Tiruvallur
Pulicat Village Heritage Walk,13.4167,80.3167,Tiruvallur
Tiruvallur Cultural Center,13.1231,79.9120,Tiruvallur
Poondi Dam Viewpoint,13.1850,79.8600,Tiruvallur
Red Hills Lake Viewpoint,13.1580,80.1730,Tiruvallur
Pulicat Sunset Point,13.4167,80.3167,Tiruvallur
Chembarambakkam Lake Viewpoint,13.0114,80.0591,Tiruvallur
Sri Lakshmi Narasimha Swamy Temple,13.1231,79.9120,Tiruvallur
Kailasanathar Temple,13.1231,79.9120,Tiruvallur
Arulmigu Mariamman Temple,13.1231,79.9120,Tiruvallur
Vinayagar Temple Ponneri,13.3333,80.1833,Tiruvallur
Tiruvallur Shopping Complex,13.1231,79.9120,Tiruvallur
Ponneri Textile Market,13.3333,80.1833,Tiruvallur
Arignar Anna Zoological Park,12.8892,80.0812,Tiruvallur
Sadras Dutch Fort,12.6167,80.1833,Tiruvallur
Thiruvalangadu Temple,13.1231,79.9120,Tiruvallur
Porur Lake,13.0353,80.1565,Tiruvallur
Kamarajar Lake,13.1231,79.9120,Tiruvallur
Arulmigu Karumariamman Temple,13.1231,79.9120,Tiruvallur
VGP Marine Kingdom,12.9721,80.2541,Tiruvallur
Alamathi Rathaswamy Temple,13.1231,79.9120,Tiruvallur
Minjur Beach,13.2786,80.2597,Tiruvallur
Sri Padmavathi Amman Temple,13.1231,79.9120,Tiruvallur
Tiruvottiyur Beach,13.1643,80.3007,Tiruvallur
Puzhal Lake Viewpoint,13.1580,80.1730,Tiruvallur
Hotel Srinivasa Bhavan,13.1231,79.9120,Tiruvallur
Thirunindravur Perumal Temple,13.0796,80.0273,Tiruvallur
Arulmigu Singamugavelayutha Swamy Temple,13.1231,79.9120,Tiruvallur
Gummidipundi Forest,13.4000,80.1167,Tiruvallur
Hotel Saravana Bhavan Ponneri,13.3333,80.1833,Tiruvallur
Pulicat Island Tour,13.4167,80.3167,Tiruvallur
Tiruvallur Government Museum,13.1231,79.9120,Tiruvallur
Sri Yoga Narasimha Swamy Temple,13.1231,79.9120,Tiruvallur
Ponneri Handicrafts Market,13.3333,80.1833,Tiruvallur
Manali Beach,13.1786,80.2983,Tiruvallur
Pazhaverkadu Beach,13.4167,80.3167,Tiruvallur
Hotel Banana Leaf Thiruthani,13.1759,79.6164,Tiruvallur
Arulmigu Kamakshi Amman Temple Gummidipundi,13.4000,80.1167,Tiruvallur
Cholavaram Lake,13.1231,79.9120,Tiruvallur
Thiruverkadu Karumariamman Temple,13.0580,80.1400,Tiruvallur
Ponneri Eco Park,13.3333,80.1833,Tiruvallur
Cafe Madras Tiruvallur,13.1231,79.9120,Tiruvallur
Sri Ranganathar Temple Ponneri,13.3333,80.1833,Tiruvallur
Athipattu Waterfalls,13.1231,79.9120,Tiruvallur
Thiruvallur Bus Stand Market,13.1231,79.9120,Tiruvallur
Arulmigu Sundaravaradaraja Perumal Temple,13.1231,79.9120,Tiruvallur
Pulicat Backwater Kayaking,13.4167,80.3167,Tiruvallur
Hotel Vasantha Bhavan,13.1231,79.9120,Tiruvallur
Alamathi Lake,13.1231,79.9120,Tiruvallur
Arulmigu Kottai Mariamman Temple,13.1231,79.9120,Tiruvallur
Gummidipundi Coastal Drive,13.4000,80.1167,Tiruvallur
Ponneri Photography Spots,13.3333,80.1833,Tiruvallur
Krishna Sweets Tiruvallur,13.1231,79.9120,Tiruvallur
Thiruppalaivanam Temple,13.1231,79.9120,Tiruvallur
Pazhaverkadu Flamingo Point,13.4167,80.3167,Tiruvallur
Tiruvallur Heritage Walk,13.1231,79.9120,Tiruvallur
Sri Venkatachalapathy Temple,13.1231,79.9120,Tiruvallur
Ponneri Sunset Beach Point,13.3333,80.1833,Tiruvallur
Pulicat Traditional Fishing Village Tour,13.4167,80.3167,Tiruvallur
Hotel Guru Bhavan,13.1231,79.9120,Tiruvallur
Thiruvallur City Park,13.1231,79.9120,Tiruvallur
Arulmigu Sowmya Narayana Perumal Temple,13.1231,79.9120,Tiruvallur
Gummidipundi Pottery Village,13.4000,80.1167,Tiruvallur
Kamakshi Amman Temple,12.8263,79.6968,Kanchipuram
Ekambareswarar Temple,12.8472,79.7003,Kanchipuram
Varadharaja Perumal Temple,12.8190,79.7252,Kanchipuram
Kailasanathar Temple,12.8372,79.6955,Kanchipuram
Ulagalantha Perumal Temple,12.8250,79.7050,Kanchipuram
Vaikunda Perumal Temple,12.8300,79.7100,Kanchipuram
Kumarakottam Temple,12.8280,79.7080,Kanchipuram
Shore Temple Mahabalipuram,12.6165,80.1993,Kanchipuram
Thirukacchi Ekambam Temple,12.8350,79.7020,Kanchipuram
Kachapeswarar Temple,12.8320,79.7090,Kanchipuram
Pancha Rathas,12.6088,80.1896,Kanchipuram
Arjuna's Penance,12.6189,80.1922,Kanchipuram
Krishna's Butterball,12.6203,80.1931,Kanchipuram
Mahabalipuram Open Air Museum,12.6180,80.1950,Kanchipuram
Tiger Cave Mahabalipuram,12.6500,80.2050,Kanchipuram
Mahishasuramardini Cave,12.6210,80.1940,Kanchipuram
Varaha Cave Temple,12.6195,80.1935,Kanchipuram
Mahabalipuram Beach,12.6200,80.2000,Kanchipuram
Covelong Beach,12.7922,80.2546,Kanchipuram
Silver Beach Mahabalipuram,12.6180,80.2010,Kanchipuram
Sadras Beach,12.6167,80.1833,Kanchipuram
Kanchipuram Silk Saree Market,12.8350,79.7020,Kanchipuram
Kanchipuram Co-operative Silk Society,12.8340,79.7030,Kanchipuram
Gandhi Road Shopping Street,12.8330,79.7040,Kanchipuram
Kanchipuram Silk Weaving Center,12.8360,79.7010,Kanchipuram
Mahabalipuram Handicrafts Market,12.6220,80.1980,Kanchipuram
Kanchi Kudil Heritage House,12.8380,79.7000,Kanchipuram
DakshinaChitra Museum,12.8172,80.2442,Kanchipuram
India Seashell Museum Mahabalipuram,12.6250,80.1970,Kanchipuram
Vedanthangal Bird Sanctuary,12.5407,79.8528,Kanchipuram
Madras Crocodile Bank,12.7458,80.2338,Kanchipuram
Muttukadu Backwaters,12.8050,80.2400,Kanchipuram
Muttukadu Boat House,12.8124,80.2362,Kanchipuram
Kanchi Kamakoti Peetham,12.8270,79.6980,Kanchipuram
Adhi Varaha Perumal Temple,12.8200,79.7060,Kanchipuram
Pandava Dootha Perumal Temple,12.8210,79.7070,Kanchipuram
Saravana Bhavan Kanchipuram,12.8340,79.7050,Kanchipuram
Hotel Saravana Bhavan Mahabalipuram,12.6230,80.1990,Kanchipuram
Moonrakers Mahabalipuram,12.6240,80.2000,Kanchipuram
Le Yogi Mahabalipuram,12.6250,80.2010,Kanchipuram
Mamalla Bhavan,12.6220,80.1980,Kanchipuram
Sea Shore Garden Restaurant,12.6200,80.2020,Kanchipuram
Covelong Point Surf School,12.7922,80.2546,Kanchipuram
Mahabalipuram Water Sports Center,12.6210,80.2015,Kanchipuram
Parasailing at Mahabalipuram,12.6200,80.2010,Kanchipuram
Kanchipuram Town Park,12.8330,79.7060,Kanchipuram
Mahabalipuram Beach Park,12.6190,80.2005,Kanchipuram
Lighthouse Mahabalipuram,12.6215,80.1995,Kanchipuram
Mahabalipuram Sunset Point,12.6180,80.2000,Kanchipuram
Covelong Beach Sunset View,12.7922,80.2546,Kanchipuram
Thiruvakkarai Temple,12.8400,79.6950,Kanchipuram
Deepa Prakasa Perumal Temple,12.8290,79.7110,Kanchipuram
Ashtabhuja Perumal Temple,12.8310,79.7120,Kanchipuram
Pavalavannanathar Temple,12.8420,79.6940,Kanchipuram
Kamakshi Cave Temple,12.8260,79.6970,Kanchipuram
Trilokyanatha Temple,12.8270,79.7130,Kanchipuram
Iravataneswara Temple,12.8440,79.6930,Kanchipuram
Muktheeswarar Temple,12.8450,79.6920,Kanchipuram
Thiruputkuzhi Temple,12.8500,79.6900,Kanchipuram
Atiranachanda Cave Temple,12.6230,80.1960,Kanchipuram
Trimurti Cave Temple,12.6240,80.1965,Kanchipuram
Ganesha Ratha,12.6095,80.1900,Kanchipuram
Mahabalipuram Rock Carving Workshop,12.6250,80.1975,Kanchipuram
Thirukkalukkunram Temple,12.5750,79.9750,Kanchipuram
Vedagiri Murugan Temple,12.5780,79.9770,Kanchipuram
Palar River Viewpoint,12.8000,79.7500,Kanchipuram
Chengalpattu Fort,12.6917,79.9753,Kanchipuram
Kolavai Lake,12.7500,79.9000,Kanchipuram
Thiruporur Murugan Temple,12.7500,80.1667,Kanchipuram
Alamparai Fort,12.2500,80.0833,Kanchipuram
Kovalam Beach,12.7833,80.2500,Kanchipuram
Madurantakam Lake,12.5000,79.8833,Kanchipuram
Kalpakkam Beach,12.5500,80.1667,Kanchipuram
Thiruvidanthai Temple,12.8167,80.1333,Kanchipuram
Jalakanteshwara Temple Vellore,12.9167,79.1333,Kanchipuram
GRT Temple Bay Beach Resort,12.6200,80.2030,Kanchipuram
Fisherman's Cove Beach,12.8350,80.2550,Kanchipuram
Vedanthangal Lake Boating,12.5407,79.8528,Kanchipuram
Hotel Aryaas Kanchipuram,12.8345,79.7055,Kanchipuram
Thalappakatti Restaurant Kanchipuram,12.8350,79.7045,Kanchipuram
Murugan Idli Shop Kanchipuram,12.8355,79.7065,Kanchipuram
Mahabalipuram Seafood Restaurants,12.6225,80.1995,Kanchipuram
Gecko Mahabalipuram,12.6235,80.2005,Kanchipuram
Wharf Mahabalipuram,12.6245,80.2015,Kanchipuram
Kanchipuram Traditional Breakfast Stalls,12.8340,79.7050,Kanchipuram
Mahabalipuram Beach Shacks,12.6200,80.2010,Kanchipuram
Kanchipuram Temple Prasadam Shops,12.8350,79.7020,Kanchipuram
Mahabalipuram Art Gallery,12.6230,80.1985,Kanchipuram
Stone Sculpture Museum,12.6240,80.1990,Kanchipuram
Kanchipuram Heritage Walking Tour,12.8350,79.7000,Kanchipuram
Mahabalipuram Photography Tour,12.6200,80.1950,Kanchipuram
Kovalam Backwaters,12.7833,80.2500,Kanchipuram
Mahabalipuram Cycling Tour,12.6200,80.1960,Kanchipuram
Kanchipuram Silk Factory Visit,12.8360,79.7030,Kanchipuram
Bay of Bengal Drive Mahabalipuram,12.6200,80.2000,Kanchipuram
Mahabs Beach Cafe,12.6215,80.2008,Kanchipuram
Mahabalipuram Fish Market,12.6205,80.2002,Kanchipuram
Olcott Memorial School Mahabalipuram,12.6250,80.1980,Kanchipuram
Sadras Dutch Fort Ruins,12.6167,80.1833,Kanchipuram
ECR Beach Resorts Area,12.7500,80.2300,Kanchipuram
Sri Lakshmi Narayani Golden Temple,12.8733,79.0884,Vellore
Jalakandeswarar Temple,12.9206,79.1279,Vellore
Ratnagiri Murugan Temple,12.9200,79.1300,Vellore
Virinjipuram Temple,12.9150,79.1250,Vellore
Margabandeeswarar Temple,12.9100,79.1200,Vellore
Sathuvachari Murugan Temple,12.9300,79.1400,Vellore
St. John's Church,12.9210,79.1285,Vellore
Big Mosque Vellore Fort,12.9206,79.1279,Vellore
Vellore Fort,12.9206,79.1279,Vellore
Archaeological Survey Museum Vellore,12.9206,79.1279,Vellore
Government Museum Vellore,12.9180,79.1300,Vellore
Tipu Sultan's Mosque,12.9206,79.1279,Vellore
Yelagiri Hills,12.5846,78.6346,Vellore
Swamimalai Hills Yelagiri,12.5900,78.6400,Vellore
Jalagamparai Waterfalls,12.6000,78.6500,Vellore
Punganur Lake Yelagiri,12.5850,78.6350,Vellore
Amirthi Zoological Park,12.7319,79.0561,Vellore
Amirthi Forest,12.7300,79.0550,Vellore
Palamathi Hills,12.6000,78.6600,Vellore
Kavalur Observatory,12.5767,78.8267,Vellore
Periyar Park,12.9200,79.1320,Vellore
Science Park Vellore,12.9250,79.1350,Vellore
Botanical Garden Yelagiri,12.5860,78.6360,Vellore
Rose Garden Yelagiri,12.5870,78.6370,Vellore
Yelagiri Adventure Camp,12.5880,78.6380,Vellore
Paragliding at Yelagiri,12.5900,78.6400,Vellore
Trekking at Yelagiri,12.5850,78.6350,Vellore
Zip Line Yelagiri,12.5865,78.6365,Vellore
Boating at Punganur Lake,12.5850,78.6350,Vellore
Main Bazaar Vellore,12.9190,79.1310,Vellore
VIT Market Complex,12.9697,79.1558,Vellore
Gandhi Road Shopping,12.9185,79.1315,Vellore
Yelagiri Handicrafts Market,12.5855,78.6355,Vellore
Darling Restaurant Vellore,12.9180,79.1320,Vellore
Saravana Bhavan Vellore,12.9175,79.1325,Vellore
The Vellore Kitchen,12.9170,79.1330,Vellore
Alankar Virundhu,12.9165,79.1335,Vellore
Sai Sangeet Restaurant,12.9160,79.1340,Vellore
Yelagiri Lake View Cafe,12.5850,78.6350,Vellore
Hotel Aryaas Vellore,12.9155,79.1345,Vellore
Peter England Bakery,12.9150,79.1350,Vellore
Yelagiri Viewpoint,12.5920,78.6420,Vellore
Telescope Observatory Yelagiri,12.5890,78.6390,Vellore
Sunset Point Yelagiri,12.5910,78.6410,Vellore
CMC Vellore Campus Tour,12.9250,79.1450,Vellore
VIT University Campus,12.9697,79.1558,Vellore
Silk Farm Yelagiri,12.5840,78.6340,Vellore
Nilavoor Lake,12.6050,78.6550,Vellore
Vellore Nature Park,12.9220,79.1360,Vellore
Fundera Park Vellore,12.9240,79.1370,Vellore
Mordhana Dam,12.9000,79.1000,Vellore
Belagondapalli Fort,12.8500,79.0500,Vellore
Vainu Bappu Observatory,12.5767,78.8267,Vellore
Tada Falls,13.3167,79.9833,Vellore
Natrampalli Lake,12.8000,78.8000,Vellore
Sri Margabandhu Amman Temple,12.9100,79.1200,Vellore
Thiruvalam Shiva Temple,12.9500,79.2000,Vellore
Thirumalaikodi Temple,12.8730,79.0880,Vellore
Vallimalai Murugan Temple,12.8800,79.0900,Vellore
Arulmigu Lakshmi Narasimha Swamy Temple,12.9050,79.1150,Vellore
Krishnagiri Dam,12.5333,78.2167,Vellore
Thandikudi Murugan Temple,12.9400,79.1500,Vellore
Thirthamalai Temple,12.4500,78.5500,Vellore
Elagiri Adventure Sports Camp,12.5850,78.6350,Vellore
Nature Park Yelagiri,12.5845,78.6345,Vellore
Velavan Temple Swamimalai,12.5900,78.6400,Vellore
Javadu Hills,12.4500,78.8500,Vellore
Beemanmadavu Falls,12.5000,78.7000,Vellore
Sholinghur Yoga Narasimha Temple,13.0167,79.4167,Vellore
Koundinya Wildlife Sanctuary,13.1000,78.5000,Vellore
Mamandur Fort,12.8000,79.2000,Vellore
Chittor Palace Ruins,12.9500,79.2500,Vellore
Walajapet Market,12.9250,79.3667,Vellore
Katpadi Junction Shopping Area,12.9697,79.1558,Vellore
Yelagiri Tribal Museum,12.5860,78.6360,Vellore
Silk Weaving Center Vellore,12.9170,79.1330,Vellore
Arignar Anna Zoological Park Vandalur,12.8892,80.0812,Vellore
Hotel Junior Kuppanna,12.9165,79.1335,Vellore
Geetha Cafe Vellore,12.9160,79.1340,Vellore
Sri Krishna Sweets Vellore,12.9155,79.1345,Vellore
Vasantha Bhavan Vellore,12.9150,79.1350,Vellore
Golden Palms Restaurant,12.9145,79.1355,Vellore
Yelagiri Mountain View Restaurant,12.5855,78.6355,Vellore
Vainu Bappu Lake,12.5767,78.8267,Vellore
Jalakandapuram Temple,12.9200,79.1280,Vellore
Kailasagiri Park Yelagiri,12.5865,78.6365,Vellore
Yelagiri Orchidarium,12.5870,78.6370,Vellore
Rock Climbing at Yelagiri,12.5880,78.6380,Vellore
Rappelling at Yelagiri Hills,12.5875,78.6375,Vellore
Rifle Shooting Range Yelagiri,12.5885,78.6385,Vellore
ATV Rides Yelagiri,12.5890,78.6390,Vellore
Heritage Village Resort Vellore,12.9100,79.1250,Vellore
Muthu Mandapam,12.9206,79.1279,Vellore
Vellore Fort Light & Sound Show,12.9206,79.1279,Vellore
Arcot Fort,12.9056,79.3194,Vellore
Ranipet Industrial Heritage Tour,12.9250,79.3333,Vellore
Ponnai River Viewpoint,12.9500,79.2000,Vellore
Vellore Central Mall,12.9180,79.1330,Vellore
Leather Factory Outlet Vellore,12.9200,79.1350,Vellore
Palamathi Viewpoint,12.6020,78.6620,Vellore
Shore Temple Mahabalipuram,12.6165,80.1993,Chengalpattu
Vedagiriswarar Temple Thirukalukundram,12.6067,80.0625,Chengalpattu
Kandhaswamy Temple Tirupporur,12.7500,80.1667,Chengalpattu
Nithya Kalyana Perumal Temple,12.6900,79.9800,Chengalpattu
Srinivasa Perumal Temple Semmanjeri,12.8200,80.1200,Chengalpattu
Tiruvidanthai Lakshmi Narasimha Temple,12.8167,80.1333,Chengalpattu
Vallam Hill Cave Temple,12.6500,80.0000,Chengalpattu
Sthalasayana Perumal Temple,12.6500,79.9600,Chengalpattu
Pancha Rathas,12.6088,80.1896,Chengalpattu
Arjuna's Penance,12.6189,80.1922,Chengalpattu
Krishna's Butter Ball,12.6203,80.1931,Chengalpattu
Tiger Cave Mahabalipuram,12.6500,80.2050,Chengalpattu
Varaha Cave Temple,12.6195,80.1935,Chengalpattu
Mahishasuramardini Cave,12.6210,80.1940,Chengalpattu
Alamparai Fort,12.2668,80.0104,Chengalpattu
Sadras Fort,12.6167,80.1833,Chengalpattu
Mahabalipuram Beach,12.6200,80.2000,Chengalpattu
Kovalam Beach,12.7833,80.2500,Chengalpattu
Mudaliarkuppam Beach,12.7000,80.2300,Chengalpattu
Covelong Beach,12.7922,80.2546,Chengalpattu
Arignar Anna Zoological Park Vandalur,12.8892,80.0812,Chengalpattu
Madras Crocodile Bank,12.7458,80.2338,Chengalpattu
Vedanthangal Bird Sanctuary,12.5407,79.8528,Chengalpattu
Karikili Bird Sanctuary,12.5500,79.8600,Chengalpattu
Muttukadu Boat House,12.8124,80.2362,Chengalpattu
Muttukadu Backwaters,12.8050,80.2400,Chengalpattu
Mudaliarkuppam Boat House,12.7000,80.2300,Chengalpattu
Kovalam Lake,12.7833,80.2500,Chengalpattu
DakshinaChitra Museum,12.8172,80.2442,Chengalpattu
India Seashell Museum,12.6250,80.1970,Chengalpattu
Sculpture Museum Mahabalipuram,12.6220,80.1980,Chengalpattu
MGM Dizzee World,12.8256,80.2500,Chengalpattu
Mayajaal Multiplex,12.8350,80.2450,Chengalpattu
Mahabalipuram Handicrafts Market,12.6220,80.1980,Chengalpattu
Stone Sculpture Shops Mahabalipuram,12.6210,80.1975,Chengalpattu
Chengalpattu Main Market,12.6917,79.9753,Chengalpattu
Moonrakers Mahabalipuram,12.6240,80.2000,Chengalpattu
Le Yogi Mahabalipuram,12.6250,80.2010,Chengalpattu
Mamalla Bhavan,12.6220,80.1980,Chengalpattu
Sea Shore Garden Restaurant,12.6200,80.2020,Chengalpattu
Saravana Bhavan Chengalpattu,12.6920,79.9760,Chengalpattu
Hotel Aryaas Chengalpattu,12.6925,79.9765,Chengalpattu
Covelong Point Surf School,12.7922,80.2546,Chengalpattu
Mahabalipuram Water Sports,12.6210,80.2015,Chengalpattu
Mahabalipuram Lighthouse,12.6215,80.1995,Chengalpattu
Mahabalipuram Sunset Point,12.6180,80.2000,Chengalpattu
Kovalam Beach Sunset View,12.7833,80.2500,Chengalpattu
Chengalpattu Town Park,12.6917,79.9753,Chengalpattu
Mahabalipuram Beach Park,12.6190,80.2005,Chengalpattu
Cholamandal Artists Village,12.9045,80.2421,Chengalpattu
Sri Maha Bhairavar Rudhra Alayam,12.6900,79.9700,Chengalpattu
Gnanapureeswarar Temple,12.6950,79.9750,Chengalpattu
Kothanda Ramaswamy Temple,12.6800,79.9650,Chengalpattu
Sri Srarda Shamrakshana Narayanan Temple,12.6850,79.9680,Chengalpattu
Vedhaantheeswarar Cave Temple,12.6067,80.0625,Chengalpattu
Giri Varadharaja Perumal Temple Vallam,12.6500,80.0000,Chengalpattu
Parvati Hill Temples,12.6100,80.0650,Chengalpattu
Arulmigu Thiruvadisoolam Temple,12.6750,79.9600,Chengalpattu
Kolavai Lake,12.7062,79.9890,Chengalpattu
Veeranam Lake,11.7500,79.5000,Chengalpattu
Wellington Lake,12.7000,80.0000,Chengalpattu
Irumbai Tank,12.7200,79.9900,Chengalpattu
Purana Singa Palayam Lake,12.7100,79.9950,Chengalpattu
Chembarambakkam Lake Boating,13.0114,80.0591,Chengalpattu
Kolavai Lake Bird Watching,12.7062,79.9890,Chengalpattu
Kolavai Lake Viewpoint,12.7062,79.9890,Chengalpattu
Anjur Lake Sunset Point,12.7300,80.0100,Chengalpattu
Melmaruvathur Adhiparasakthi Temple,12.4314,79.8314,Chengalpattu
Maraimalai Nagar Town Park,12.7833,80.0333,Chengalpattu
Chengalpattu Fort Ruins,12.6917,79.9753,Chengalpattu
Laurel Shopping Mall,12.6930,79.9770,Chengalpattu
Marina Mall Egattur,12.8000,80.0500,Chengalpattu
Chengalpattu Railway Station Market,12.6917,79.9753,Chengalpattu
Maraimalai Nagar Shopping Street,12.7833,80.0333,Chengalpattu
Alandur Textile Market,13.0021,80.2062,Chengalpattu
Hotel Saravana Bhavan Maraimalai Nagar,12.7840,80.0340,Chengalpattu
Hotel Aryaas Maraimalai Nagar,12.7845,80.0345,Chengalpattu
Murugan Idli Shop Chengalpattu,12.6920,79.9755,Chengalpattu
A2B Adyar Ananda Bhavan Chengalpattu,12.6925,79.9760,Chengalpattu
Krishna Sweets Chengalpattu,12.6930,79.9765,Chengalpattu
Junior Kuppanna Restaurant,12.6935,79.9770,Chengalpattu
Vasantha Bhavan Chengalpattu,12.6940,79.9775,Chengalpattu
Sangeetha Restaurant Chengalpattu,12.6945,79.9780,Chengalpattu
Paranur Railway Station Heritage Walk,12.7000,79.9900,Chengalpattu
Kovalam Backwaters Kayaking,12.7833,80.2500,Chengalpattu
Mahabalipuram Rock Climbing,12.6200,80.1960,Chengalpattu
Mudaliarkuppam Fishing Experience,12.7000,80.2300,Chengalpattu
Mahabalipuram Heritage Cycling Tour,12.6200,80.1950,Chengalpattu
Kovalam Beach Surfing School,12.7833,80.2500,Chengalpattu
ECR Scenic Drive,12.7500,80.2300,Chengalpattu
Mahabalipuram Photography Spots,12.6200,80.1950,Chengalpattu
Kalpakkam Atomic Energy Museum,12.5500,80.1667,Chengalpattu
Kolavai Lake Boating,12.7062,79.9890,Chengalpattu
Madurantakam Town Temple,12.5250,79.8750,Chengalpattu
Madurantakam Lake Park,12.5250,79.8750,Chengalpattu
Nemmeli Beach,12.8500,80.2600,Chengalpattu
Chengalpattu Central Park,12.6917,79.9753,Chengalpattu
Uthiramerur Ancient Village,12.6167,79.7667,Chengalpattu
Maraimalai Nagar Lake,12.7833,80.0333,Chengalpattu
Mahabalipuram Fish Market,12.6205,80.2002,Chengalpattu
Gingee Fort,12.2593,79.4067,Villupuram
Kalyana Mahal Gingee,12.2590,79.4065,Villupuram
Rajagiri Fort,12.2600,79.4070,Villupuram
Krishnagiri Fort Gingee,12.2580,79.4060,Villupuram
Auroville Matrimandir,12.0070,79.8106,Villupuram
Auroville Beach,12.0100,79.8300,Villupuram
Savitri Bhavan Auroville,12.0080,79.8110,Villupuram
Sadhana Forest Auroville,12.0200,79.8200,Villupuram
Quiet Healing Centre Auroville,12.0090,79.8120,Villupuram
Botanical Garden Auroville,12.0110,79.8130,Villupuram
Venugopala Swamy Temple,12.2500,79.4000,Villupuram
Mailam Murugan Temple,12.1500,79.5000,Villupuram
Thiruvamathur Chola Temple,11.9500,79.4500,Villupuram
Melmalaiyanur Angalamman Temple,12.0500,79.4000,Villupuram
Venkataramana Temple Gingee,12.2550,79.4050,Villupuram
Panchavati Panchamukha Anjaneyar Temple,12.2540,79.4040,Villupuram
Lakshmi Narasimha Swamy Temple,12.2530,79.4030,Villupuram
Ranganatha Temple Gingee,12.2520,79.4020,Villupuram
National Fossil Wood Park Tiruvakkarai,12.2700,79.3800,Villupuram
Kalvarayan Hills,11.8000,78.7000,Villupuram
Ousteri Lake,11.9550,79.7450,Villupuram
Pichavaram Mangrove Forest,11.4319,79.7810,Villupuram
Marakkanam Beach,12.1833,79.9500,Villupuram
Serenity Beach Auroville,12.0120,79.8350,Villupuram
Auroville Beach Sunrise Point,12.0100,79.8300,Villupuram
Dalavanur Rock Cut Temple,12.3000,79.5000,Villupuram
Mandagapattu Rock Temple,12.3500,79.4800,Villupuram
Panamalai Cave Temple,12.4000,79.5500,Villupuram
Jain Caves Sirukadambur,12.3200,79.4600,Villupuram
Villupuram Main Market,11.9369,79.4873,Villupuram
Auroville Boutiques,12.0085,79.8115,Villupuram
Gingee Market Street,12.2559,79.4172,Villupuram
Marc's Cafe Auroville,12.0075,79.8105,Villupuram
Tanto Pizzeria Auroville,12.0095,79.8125,Villupuram
Bread & Chocolate Auroville,12.0105,79.8135,Villupuram
Well Cafe Auroville,12.0065,79.8095,Villupuram
Saravana Bhavan Villupuram,11.9370,79.4875,Villupuram
Hotel Aryaas Villupuram,11.9375,79.4880,Villupuram
Solar Kitchen Auroville,12.0072,79.8108,Villupuram
Auroville Visitors Centre,12.0050,79.8090,Villupuram
Mangala Buddha Vihar,12.0130,79.8200,Villupuram
Adishakti Theatre Arts Auroville,12.0140,79.8210,Villupuram
Kalvarayan Hills Trekking,11.8000,78.7000,Villupuram
Pichavaram Boat Ride,11.4319,79.7810,Villupuram
Villupuram Town Park,11.9368,79.4872,Villupuram
Auroville Youth Center,12.0060,79.8100,Villupuram
Gingee Prisoners Well,12.2595,79.4068,Villupuram
Saad-at-allah Khan Mosque,12.2585,79.4062,Villupuram
Marakkanam Salt Pans,12.1800,79.9400,Villupuram
Matrimandir Viewing Point,12.0070,79.8106,Villupuram
Ulagalantha Perumal Temple Tirukoilur,12.1500,79.2000,Villupuram
Veeratteswarar Temple Tirukoilur,12.1550,79.2050,Villupuram
Sri Vaikundavasagar Perumal Temple,11.9400,79.4900,Villupuram
Kottai Vinayagar Temple,12.2560,79.4055,Villupuram
Abiramieswarar Temple Thiruvaamathoor,11.9500,79.4500,Villupuram
Sri Ramanatha Eswarar Temple Esalam,12.0000,79.5000,Villupuram
Singavaram Ranganatha Temple,12.1000,79.3000,Villupuram
Parikkal Lakshmi Narasimha Temple,12.0500,79.3500,Villupuram
Thiruvakkarai Vakkira Kali Amman Temple,12.2700,79.3800,Villupuram
Irumbai Maakaaleswarar Temple,12.0200,79.4200,Villupuram
Thirunarungondai Jain Cave Temple,12.3300,79.4700,Villupuram
Chakkarakulam Pond Gingee,12.2570,79.4045,Villupuram
Chettikulam Pond Gingee,12.2575,79.4048,Villupuram
Pitchandikulam Forest,12.0150,79.8250,Villupuram
Svaram Auroville,12.0055,79.8092,Villupuram
Muthupet Mangrove Forest,10.4000,79.5000,Villupuram
Suruttappalli Caves,12.3100,79.4500,Villupuram
Keeripallam Dam,12.1200,79.3200,Villupuram
Palayarai Palace,12.2800,79.3900,Villupuram
Thiruvakkarai Agnipureeswarar Temple,12.2700,79.3800,Villupuram
Jambukeswarar Temple Complex,12.2650,79.3750,Villupuram
Chinnamalai Market,11.9380,79.4885,Villupuram
Auroville Film Institute,12.0045,79.8088,Villupuram
Auroville Art Gallery,12.0040,79.8085,Villupuram
Svaram Musical Instrument Workshop,12.0055,79.8092,Villupuram
Auroville Pottery Centre,12.0035,79.8080,Villupuram
Naturellement Garden Cafe,12.0088,79.8118,Villupuram
Aurelec Solar Workshop,12.0030,79.8075,Villupuram
Auroville Learning Centre,12.0025,79.8070,Villupuram
Hotel Sangam Villupuram,11.9372,79.4877,Villupuram
A2B Adyar Ananda Bhavan Villupuram,11.9374,79.4879,Villupuram
Sri Krishna Sweets Villupuram,11.9376,79.4881,Villupuram
Sree Annapoorna Sree Gowrishankar,11.9378,79.4883,Villupuram
Cafe Illusion Auroville,12.0078,79.8112,Villupuram
Crepe d'Avallon Auroville,12.0082,79.8116,Villupuram
Kalvarayan Hills Viewpoint,11.8100,78.7100,Villupuram
Kalvarayan Waterfalls,11.8200,78.7200,Villupuram
Gingee Archaeological Museum,12.2565,79.4052,Villupuram
Ousteri Lake Bird Watching,11.9550,79.7450,Villupuram
Ousteri Lake Boating,11.9550,79.7450,Villupuram
Marakkanam Beach Sunrise Point,12.1833,79.9500,Villupuram
Villupuram Railway Junction Heritage,11.9369,79.4873,Villupuram
Auroville International Zone,12.0020,79.8065,Villupuram
Unity Pavilion Auroville,12.0015,79.8060,Villupuram
Auroville Amphitheatre,12.0010,79.8055,Villupuram
Pichavaram Mangrove Kayaking,11.4319,79.7810,Villupuram
Gingee Sunset Point,12.2600,79.4075,Villupuram
Kalvarayan Tribal Village Tour,11.8000,78.7000,Villupuram
Auroville Outreach Media,12.0005,79.8050,Villupuram
Marakkanam Fish Market,12.1833,79.9500,Villupuram
Krishnagiri Fort,12.5186,78.2138,Krishnagiri
Rayakottah Fort,12.5216,78.0500,Krishnagiri
Krishnagiri Government Museum,12.5190,78.2140,Krishnagiri
Shree Parshwa Padmavathi Shaktipeet,12.5200,78.2150,Krishnagiri
Sri Kattu Veera Anjaneya Temple,12.5180,78.2130,Krishnagiri
Chandra Choodeswarar Temple Hosur,12.7409,77.8253,Krishnagiri
Dakshina Tirupati Temple,12.7400,77.8250,Krishnagiri
Arulmigu Maragathamigai Temple,12.5170,78.2120,Krishnagiri
Ganesh Temple Krishnagiri Fort,12.5186,78.2138,Krishnagiri
Narasimha Temple Krishnagiri,12.5185,78.2135,Krishnagiri
Pettaraya Swamy Temple,12.5175,78.2125,Krishnagiri
Jain Basadi Krishnagiri,12.5195,78.2145,Krishnagiri
Krishnagiri Dam,12.4937,78.1782,Krishnagiri
KRP Dam Park,12.4776,78.1781,Krishnagiri
Kelavarapalli Dam,12.6500,77.9500,Krishnagiri
Thally Reservoir,12.1500,77.6500,Krishnagiri
Anchetty Dam,12.5000,77.7000,Krishnagiri
Javadi Hills,12.5833,78.8333,Krishnagiri
Aiyur Eco Tourism Park,12.5500,78.2500,Krishnagiri
Thally Garden,12.1500,77.6500,Krishnagiri
Berigai Viewpoint,12.6000,78.0000,Krishnagiri
Doddametrai River Temple,12.5300,78.1500,Krishnagiri
Hogenakkal Falls,12.1182,77.7739,Krishnagiri
Palacode Waterfalls,12.4500,78.0000,Krishnagiri
Muthanallur Lake,12.5400,78.2200,Krishnagiri
Avathanapatti Lake,12.5600,78.2400,Krishnagiri
Krishnagiri Rose Garden,12.5192,78.2140,Krishnagiri
Hosur Deer Park,12.7350,77.8300,Krishnagiri
Brahma Hills Park,12.5250,78.2180,Krishnagiri
Kelavarapalli Rock Garden,12.6500,77.9500,Krishnagiri
Krishnagiri Mango Market,12.5188,78.2142,Krishnagiri
Hosur Main Market,12.7365,77.8326,Krishnagiri
Krishnagiri Central Market,12.5190,78.2145,Krishnagiri
Saravana Bhavan Krishnagiri,12.5185,78.2140,Krishnagiri
Hotel Aryaas Krishnagiri,12.5187,78.2143,Krishnagiri
Adiga's Restaurant Hosur,12.7360,77.8320,Krishnagiri
Highway King Dhaba,12.5200,78.2160,Krishnagiri
Barbeque Nation Hosur,12.7370,77.8330,Krishnagiri
A2B Adyar Ananda Bhavan Hosur,12.7355,77.8315,Krishnagiri
Sangeetha Restaurant Krishnagiri,12.5183,78.2138,Krishnagiri
Hogenakkal Coracle Boat Ride,12.1182,77.7739,Krishnagiri
Javadi Hills Trekking,12.5833,78.8333,Krishnagiri
Hosur Industrial Tour,12.7300,77.8200,Krishnagiri
Dennakottai Valley,12.5500,78.0500,Krishnagiri
Hanuman Thirtham,12.1200,77.7800,Krishnagiri
Krishnagiri Rose Garden Night View,12.5192,78.2140,Krishnagiri
Hosur Clock Tower,12.7365,77.8326,Krishnagiri
Anchetty Forest Reserve,12.5000,77.7000,Krishnagiri
Kaveri Pattinm Temple,12.1150,77.7700,Krishnagiri
Thally Children's Park,12.1500,77.6500,Krishnagiri
Shoolagiri Temple,12.2500,77.8500,Krishnagiri
Sayed Basha Hill,12.5350,78.2300,Krishnagiri
Veppanapalli Dam,12.4800,78.1600,Krishnagiri
Mallachandram Dolmens,12.5700,78.2600,Krishnagiri
Bargur Hills,11.9000,78.1000,Krishnagiri
Shettyhalli Village,12.6000,77.9000,Krishnagiri
Melagiri Hills,12.4000,78.3000,Krishnagiri
Arulmigu Subramanya Swamy Temple Shoolagiri,12.2500,77.8500,Krishnagiri
Sri Lakshmi Narasimha Swamy Temple Hosur,12.7380,77.8340,Krishnagiri
Maha Ganapathi Temple Krishnagiri,12.5182,78.2136,Krishnagiri
Arulmigu Mariamman Temple Hosur,12.7375,77.8335,Krishnagiri
Sri Venkateswara Swamy Temple Hosur,12.7385,77.8345,Krishnagiri
Arulmigu Dodda Basavana Gudi,12.7390,77.8350,Krishnagiri
Thally Valley Viewpoint,12.1500,77.6500,Krishnagiri
Pennagaram Lake,12.1333,77.9000,Krishnagiri
Barur Lake,12.5800,78.2800,Krishnagiri
Hosur Municipal Park,12.7358,77.8318,Krishnagiri
KRP Dam Musical Fountain,12.4776,78.1781,Krishnagiri
Krishnagiri Children's Park,12.5194,78.2148,Krishnagiri
Belrayan Valley,12.5600,78.0800,Krishnagiri
Hosur Lake,12.7340,77.8280,Krishnagiri
Bommidi Forest,12.5900,78.3000,Krishnagiri
Krishnagiri Town Hall,12.5191,78.2141,Krishnagiri
Thally Hills Trekking,12.1500,77.6500,Krishnagiri
Bargur Cave Temples,11.9000,78.1000,Krishnagiri
Sri Krishna Sweets Hosur,12.7362,77.8322,Krishnagiri
Hotel Vasantha Bhavan Krishnagiri,12.5184,78.2139,Krishnagiri
Grand Sweets Hosur,12.7364,77.8324,Krishnagiri
Sree Gowrishankar Restaurant,12.5186,78.2141,Krishnagiri
Highway Dhaba Krishnagiri,12.5205,78.2165,Krishnagiri
Hotel Kannappa Krishnagiri,12.5210,78.2170,Krishnagiri
Arya Bhavan Restaurant,12.5188,78.2144,Krishnagiri
Cafe Coffee Day Hosur,12.7368,77.8328,Krishnagiri
Krishnagiri Textile Market,12.5193,78.2146,Krishnagiri
Hosur SIPCOT Industrial Area,12.7200,77.8100,Krishnagiri
Denkanikottai Forest,12.5300,77.7500,Krishnagiri
Hosur Flower Market,12.7366,77.8327,Krishnagiri
Krishnagiri Bus Stand Market,12.5189,78.2143,Krishnagiri
Sulagiri Fort Ruins,12.6500,78.1500,Krishnagiri
Anchetty Tribal Museum,12.5000,77.7000,Krishnagiri
Hosur Science Park,12.7345,77.8285,Krishnagiri
Thally Tea Estates,12.1500,77.6500,Krishnagiri
Krishnagiri Organic Farm Visit,12.5250,78.2200,Krishnagiri
Hogenakkal Medicinal Bath,12.1182,77.7739,Krishnagiri
Kaveripattinam Riverside,12.1100,77.7650,Krishnagiri
Hosur Butterfly Park,12.7350,77.8290,Krishnagiri
Anchetty Viewpoint,12.5000,77.7000,Krishnagiri
Bargur Waterfalls,11.9000,78.1000,Krishnagiri
Krishnagiri Sunset Point,12.5220,78.2180,Krishnagiri
Hosur Auto Hub Museum,12.7400,77.8300,Krishnagiri
Thindal Murugan Temple,11.3500,77.7500,Erode
Chennimalai Murugan Temple,11.1639,77.6041,Erode
Bannari Amman Temple,11.5048,77.2384,Erode
Bhavani Sangameswarar Temple,11.4500,77.6833,Erode
Periya Mariamman Temple,11.3424,77.7282,Erode
Arudra Kabaliswarar Temple,11.3420,77.7280,Erode
Nattatreswaran Temple,11.3415,77.7275,Erode
Kodumudi Temples (Magudeshwarar & Veeranarayana),11.0833,77.8833,Erode
Pariyur Kondathu Kaliamman Temple,11.3800,77.7600,Erode
Kasthuri Ranganathar Temple,11.3400,77.7250,Erode
Bhavanisagar Dam,11.4708,77.1139,Erode
Kodiveri Dam,11.4731,77.2964,Erode
Kalingarayan Anicut,11.3000,77.9000,Erode
Lower Bhavani Project Dam,11.4700,77.1100,Erode
Kunderipallam Dam,11.4200,77.0800,Erode
Kodiveri Waterfalls,11.4750,77.3000,Erode
Kunderipallam Waterfalls,11.4200,77.0800,Erode
Anthiyur Lake Waterfalls,11.5750,77.5950,Erode
Bhavani Kuttralam Falls,11.4600,77.6900,Erode
Sathyamangalam Wildlife Sanctuary,11.5585,76.9903,Erode
Vellode Bird Sanctuary,11.1000,77.7500,Erode
Bhavani Sagar Wildlife Sanctuary,11.4800,77.1200,Erode
Sidheshwara Hills,11.5000,77.3000,Erode
Bannari Viewpoint,11.5048,77.2384,Erode
Bhalammalai Hills,11.5500,77.4000,Erode
Erode Fort,11.3424,77.7282,Erode
Erode Government Museum,11.3420,77.7280,Erode
VOC Park Erode,11.3430,77.7290,Erode
Periya Kalyana Mandapam Park,11.3425,77.7285,Erode
Erode Children's Park,11.3435,77.7295,Erode
Cauvery Botanical Garden,11.3440,77.7300,Erode
Erode Turmeric Market,11.3415,77.7275,Erode
Erode Handloom Market,11.3410,77.7270,Erode
Bhavani Pavadai Market,11.4500,77.6833,Erode
Erode Central Market,11.3418,77.7278,Erode
Saravana Bhavan Erode,11.3422,77.7283,Erode
Hotel Aryaas Erode,11.3426,77.7286,Erode
Ponram Restaurant,11.3428,77.7288,Erode
A2B Adyar Ananda Bhavan Erode,11.3432,77.7292,Erode
Sri Krishna Sweets Erode,11.3436,77.7296,Erode
Sangeetha Restaurant Erode,11.3438,77.7298,Erode
Anjappar Chettinad Restaurant,11.3442,77.7302,Erode
Kodiveri Coracle Boat Ride,11.4731,77.2964,Erode
Sidheshwara Hills Trekking,11.5000,77.3000,Erode
Bhavani-Cauvery Sangamam,11.4500,77.6833,Erode
Cauvery River View Point,11.3450,77.7400,Erode
Chennimalai Handloom Weaving Center,11.1639,77.6041,Erode
Erode Town Hall,11.3412,77.7272,Erode
Sathyamangalam Forest Reserve,11.5585,76.9903,Erode
Bhavani River Bathing Ghat,11.4500,77.6833,Erode
Sri Kongalamman Temple,11.3405,77.7265,Erode
Arulmigu Ardhanareeswarar Temple,11.3408,77.7268,Erode
Jain Temple Erode,11.3414,77.7274,Erode
Brough Church Erode,11.3416,77.7276,Erode
Arulmigu Magudeswarar Temple Kodumudi,11.0833,77.8833,Erode
Arulmigu Veeranarayana Perumal Temple Kodumudi,11.0833,77.8833,Erode
Arulmigu Kasthuri Ranganatha Perumal Temple Inungur,11.3400,77.7250,Erode
Sri Venkatachalapathy Temple Modakurichi,11.2000,77.7000,Erode
Arulmigu Periya Nayagi Amman Temple,11.3424,77.7282,Erode
Lakshmi Narasimha Temple Gobichettipalayam,11.4500,77.4333,Erode
Perumpallam Dam,11.4000,77.3500,Erode
Thadapalli Dam,11.3800,77.3200,Erode
Noyyal River Viewpoint,11.3500,77.7800,Erode
Ariyur Cauvery Bridge View,11.3600,77.8000,Erode
Sathyamangalam Tiger Reserve Safari,11.5585,76.9903,Erode
Eratti Falls,11.5200,77.0500,Erode
Monkey Falls Sathyamangalam,11.5100,77.0400,Erode
Bannari Hills,11.5048,77.2384,Erode
Hasanur Forest,11.7000,76.9000,Erode
Vellimalai Hills,11.5300,77.4500,Erode
Thalavadi Hills,11.6000,76.9500,Erode
Sathyamangalam Forest Trekking,11.5585,76.9903,Erode
VOC Zoo Erode,11.3445,77.7305,Erode
Bhavani Island Park,11.4550,77.6850,Erode
Gobichettipalayam Municipal Park,11.4550,77.4350,Erode
Chithirai Car Festival Ground,11.3424,77.7282,Erode
Erode Collectorate Museum,11.3418,77.7278,Erode
Bannari Textile Park,11.5048,77.2384,Erode
Chennimalai Textile Showroom,11.1639,77.6041,Erode
Erode Textile Complex,11.3420,77.7280,Erode
Bhavani Cotton Market,11.4500,77.6833,Erode
Gobichettipalayam Silk Market,11.4550,77.4350,Erode
Hotel Vasantha Bhavan Erode,11.3428,77.7288,Erode
Junior Kuppanna Erode,11.3432,77.7292,Erode
Sree Annapoorna Erode,11.3436,77.7296,Erode
Grand Sweets Erode,11.3440,77.7300,Erode
Cafe Coffee Day Erode,11.3444,77.7304,Erode
Chill Out Theme Park,11.3500,77.7350,Erode
Bhavani River Kayaking,11.4500,77.6833,Erode
Kalingarayan Anicut Picnic Spot,11.3000,77.9000,Erode
Lower Bhavani Canal Walk,11.4700,77.1100,Erode
Erode Railway Heritage,11.3424,77.7282,Erode
Bhavani Kuttralam Trekking,11.4600,77.6900,Erode
Chennimalai Hills Sunrise Point,11.1639,77.6041,Erode
Gobichettipalayam Clock Tower,11.4550,77.4350,Erode
Anthiyur Tribal Village,11.5750,77.5950,Erode
Thalavadi Wildlife Spotting,11.6000,76.9500,Erode
Modakurichi Handloom Center,11.2000,77.7000,Erode
Bhavani Sagar Sunset Point,11.4708,77.1139,Erode
Erode Municipal Stadium,11.3430,77.7290,Erode
Ooty Lake,11.4061,76.6882,Nilgiris
Pykara Lake,11.4548,76.5974,Nilgiris
Emerald Lake,11.3500,76.6000,Nilgiris
Avalanche Lake,11.2333,76.5500,Nilgiris
Upper Bhavani Lake,11.3000,76.4500,Nilgiris
Government Botanical Garden Ooty,11.4188,76.7113,Nilgiris
Rose Garden Ooty,11.4100,76.7050,Nilgiris
Sims Park Coonoor,11.3600,76.7900,Nilgiris
Thread Garden Ooty,11.4150,76.7080,Nilgiris
Doddabetta Peak,11.4024,76.7367,Nilgiris
Dolphin's Nose Coonoor,11.3400,76.7800,Nilgiris
Lamb's Rock Coonoor,11.3450,76.7850,Nilgiris
Kodanad Viewpoint Kotagiri,11.4200,76.8600,Nilgiris
Rangaswamy Peak Kotagiri,11.4500,76.8800,Nilgiris
Tiger Hill Ooty,11.4300,76.7200,Nilgiris
Catherine Falls,11.3800,76.7400,Nilgiris
Pykara Waterfalls,11.4548,76.5974,Nilgiris
Kalhatti Falls,11.3900,76.7300,Nilgiris
Elk Falls Kotagiri,11.4300,76.8700,Nilgiris
Law's Falls Coonoor,11.3550,76.7950,Nilgiris
Mudumalai Tiger Reserve,11.5917,76.5500,Nilgiris
Mukurthi National Park,11.3000,76.5000,Nilgiris
Longwood Shola Reserve,11.3700,76.7600,Nilgiris
Kotagiri Tea Estates,11.4206,76.8622,Nilgiris
Coonoor Tea Gardens,11.3530,76.7959,Nilgiris
Glenmorgan Tea Estate,11.3600,76.8000,Nilgiris
Stone House Ooty,11.4100,76.7000,Nilgiris
Droog Fort Coonoor,11.3350,76.7750,Nilgiris
St. Stephen's Church Ooty,11.4120,76.7040,Nilgiris
Tribal Research Center,11.4050,76.6950,Nilgiris
Wax World Museum,11.4080,76.7020,Nilgiris
Tea Museum Coonoor,11.3540,76.7960,Nilgiris
Nilgiri Mountain Railway,11.4134,76.6952,Nilgiris
Avalanche Trekking Trail,11.2333,76.5500,Nilgiris
Ooty Lake Boating,11.4061,76.6882,Nilgiris
Pine Forest Ooty,11.3800,76.6700,Nilgiris
Ooty Main Bazaar,11.4140,76.7060,Nilgiris
Coonoor Market,11.3520,76.7950,Nilgiris
Tibetan Market Ooty,11.4145,76.7065,Nilgiris
Earl's Secret Ooty,11.4150,76.7070,Nilgiris
Nahar's Sidewalk Cafe,11.4130,76.7050,Nilgiris
Hyderabad Biryani House,11.4125,76.7045,Nilgiris
Willy's Coffee Pub,11.4135,76.7055,Nilgiris
Place To Bee Cafe,11.4155,76.7075,Nilgiris
Hotel Pankaj Bhojanalaya,11.4110,76.7030,Nilgiris
Ketti Valley View,11.4400,76.7300,Nilgiris
6th Mile Coonoor,11.3480,76.7900,Nilgiris
Wenlock Downs,11.4000,76.6800,Nilgiris
Deer Park Ooty,11.3950,76.6850,Nilgiris
All Saints Church Coonoor,11.3535,76.7965,Nilgiris
Needle Rock Viewpoint Gudalur,11.4900,76.4900,Nilgiris
Annamalai Murugan Temple,11.4105,76.7025,Nilgiris
Ooty Golf Course,11.4200,76.7100,Nilgiris
Thunder World Ooty,11.4160,76.7080,Nilgiris
Glenmorgan,11.3600,76.8000,Nilgiris
Highfield Tea Factory,11.3550,76.7970,Nilgiris
Kamraj Sagar Dam Ooty,11.3750,76.6650,Nilgiris
Shooting Point Ooty,11.3850,76.6750,Nilgiris
St. Thomas Church Ooty,11.4115,76.7035,Nilgiris
Sim's Park Rose Garden,11.3600,76.7900,Nilgiris
Lady Canning's Seat,11.3500,76.7950,Nilgiris
Kagguchi Lake,11.3200,76.6500,Nilgiris
Parson's Valley Viewpoint,11.4250,76.7250,Nilgiris
Marlimund Lake,11.2800,76.5200,Nilgiris
Singara Park Ooty,11.4090,76.7010,Nilgiris
Ananda Grotto Ooty,11.4070,76.6990,Nilgiris
Cairn Hill Coonoor,11.3450,76.7900,Nilgiris
Srinivasa Perumal Temple Ooty,11.4095,76.7015,Nilgiris
Sri Ayyappan Temple Ooty,11.4100,76.7020,Nilgiris
Mariamman Temple Ooty,11.4108,76.7028,Nilgiris
Geddai Church Kotagiri,11.4210,76.8630,Nilgiris
Hindustan Photo Films Unit,11.4250,76.7150,Nilgiris
Radio Astronomy Centre,11.3800,76.6500,Nilgiris
Pazhassi's Cave Gudalur,11.5000,76.5000,Nilgiris
Panda Falls Ooty,11.3900,76.6900,Nilgiris
Kamaraj Park Ooty,11.4085,76.7005,Nilgiris
Lovedale Assembly Centre,11.4180,76.7100,Nilgiris
Nilgiri Library Ooty,11.4118,76.7038,Nilgiris
Heritage Train Ride Coonoor to Ooty,11.3530,76.7959,Nilgiris
Sim's Park Annual Fruit Show,11.3600,76.7900,Nilgiris
Bedford Circle Ooty,11.4142,76.7062,Nilgiris
Upper Bazaar Ooty,11.4148,76.7068,Nilgiris
Kotagiri Market,11.4206,76.8622,Nilgiris
Ooty Chocolate Factory,11.4138,76.7058,Nilgiris
King Star Restaurant Ooty,11.4132,76.7052,Nilgiris
Shinkow's Chinese Restaurant,11.4145,76.7065,Nilgiris
Adayar Ananda Bhavan Ooty,11.4128,76.7048,Nilgiris
Modern Stores Ooty,11.4135,76.7055,Nilgiris
Cafe Blu,11.4152,76.7072,Nilgiris
The Culinarium,11.4158,76.7078,Nilgiris
Wellington Golf Course,11.3650,76.7850,Nilgiris
Wellington Gymkhana Club,11.3660,76.7860,Nilgiris
Nilgiri Tahr Spotting Mukurthi,11.3000,76.5000,Nilgiris
Gudalore Scenic Valley,11.5100,76.5100,Nilgiris
Fingerpost Viewpoint Coonoor,11.3470,76.7890,Nilgiris
Toda Tribal Huts,11.4500,76.7500,Nilgiris
Ooty Railway Station Heritage Walk,11.4134,76.6952,Nilgiris
Ebbanad Estate Kotagiri,11.4220,76.8640,Nilgiris
Nilgiris Biosphere Nature Camp,11.4800,76.6000,Nilgiris
Ooty Rose Show Annual Event,11.4100,76.7050,Nilgiris
Hogenakkal Falls,12.1182,77.7739,Dharmapuri
Hogenakkal Coracle Boat Ride,12.1182,77.7739,Dharmapuri
Hogenakkal Viewpoint,12.1200,77.7750,Dharmapuri
Kaveri River Bathing Area,12.1180,77.7740,Dharmapuri
Theerthamalai Temple,12.5000,78.1000,Dharmapuri
Chenraya Perumal Temple,12.1275,78.1580,Dharmapuri
Kottai Kovil Temple,12.1280,78.1585,Dharmapuri
Kalabairavar Temple,12.1270,78.1575,Dharmapuri
Hanumanthathirtham Temple,12.1190,77.7745,Dharmapuri
Morappur Mariamman Temple,12.2000,78.0000,Dharmapuri
Sri Raghavendra Swamy Mutt,12.1278,78.1582,Dharmapuri
Veera Anjaneyar Temple,12.1272,78.1577,Dharmapuri
Sacred Heart Cathedral,12.1276,78.1580,Dharmapuri
Mount Carmel Church,12.1274,78.1579,Dharmapuri
CSI Zion Church,12.1273,78.1578,Dharmapuri
Adhiyamankottai Fort,12.1000,78.2000,Dharmapuri
Subramanya Siva Memorial,12.1277,78.1581,Dharmapuri
Dharmapuri Government Museum,12.1279,78.1583,Dharmapuri
Krishnagiri Dam Park,12.4937,78.1782,Dharmapuri
Mettur Dam,11.8038,77.8074,Dharmapuri
Thoppaiyar Dam,12.0500,78.0500,Dharmapuri
Pambar Dam,12.0800,78.0800,Dharmapuri
Melagiri Hills,12.4000,78.3000,Dharmapuri
Karimangalam Hills,12.2500,78.2500,Dharmapuri
Pennagaram Forest Area,12.1343,77.8953,Dharmapuri
Sitteri Forest Reserve,12.3000,78.2000,Dharmapuri
Dharmapuri Town Park,12.1275,78.1580,Dharmapuri
Children's Park Dharmapuri,12.1276,78.1581,Dharmapuri
Harur Lake Park,12.0500,78.4800,Dharmapuri
Karimangalam Lake,12.2500,78.2500,Dharmapuri
Harur Lake,12.0500,78.4800,Dharmapuri
Pennagaram Lake,12.1343,77.8953,Dharmapuri
Dharmapuri Main Market,12.1277,78.1582,Dharmapuri
Hogenakkal Fish Market,12.1182,77.7739,Dharmapuri
Harur Market,12.0500,78.4800,Dharmapuri
Hogenakkal Fish Fry Stalls,12.1182,77.7739,Dharmapuri
Saravana Bhavan Dharmapuri,12.1278,78.1583,Dharmapuri
Hotel Aryaas Dharmapuri,12.1279,78.1584,Dharmapuri
Sri Krishna Sweets,12.1280,78.1585,Dharmapuri
A2B Adyar Ananda Bhavan,12.1281,78.1586,Dharmapuri
Sangeetha Restaurant,12.1282,78.1587,Dharmapuri
Hogenakkal Medicinal Bath,12.1182,77.7739,Dharmapuri
Melagiri Hills Trekking,12.4000,78.3000,Dharmapuri
Kaveri River Rafting,12.1182,77.7739,Dharmapuri
Kaveri River Viewpoint,12.1200,77.7760,Dharmapuri
Theerthamalai Viewpoint,12.5000,78.1000,Dharmapuri
Dharmapuri Silk Weaving Center,12.1283,78.1588,Dharmapuri
Pennagaram Eco Park,12.1343,77.8953,Dharmapuri
Dharmapuri Rose Garden,12.1284,78.1589,Dharmapuri
Morappur Lake,12.2000,78.0000,Dharmapuri
Mallikarjuneswara Temple Adhiyamankottai,12.1000,78.2000,Dharmapuri
Kamatchi Ambal Temple,12.1285,78.1590,Dharmapuri
Arapaleeswarar Temple Harur,12.0500,78.4800,Dharmapuri
Sri Kottai Srinivasa Perumal Temple,12.1286,78.1591,Dharmapuri
Arulmigu Margabandhu Swamy Temple,12.1287,78.1592,Dharmapuri
Elangovan Temple Pappireddipatti,11.9177,78.3687,Dharmapuri
Sri Lakshmi Narasimha Swamy Temple Pennagaram,12.1343,77.8953,Dharmapuri
Arulmigu Ponnaiyamman Temple,12.1288,78.1593,Dharmapuri
Jain Beda Harur,12.0500,78.4800,Dharmapuri
Mohanur Mariamman Temple,12.3500,78.1500,Dharmapuri
Mettur Stanley Reservoir,11.8038,77.8074,Dharmapuri
Mettur Dam Viewpoint,11.8038,77.8074,Dharmapuri
Mettur Thermal Power Station View,11.8000,77.8100,Dharmapuri
Chinna Kolappan Lake,12.1500,78.1800,Dharmapuri
Thenkarai Lake,12.1600,78.1900,Dharmapuri
Palampatti Dam,12.1800,78.2100,Dharmapuri
Kondappanaickanur Dam,12.1900,78.2200,Dharmapuri
Agaram Lake,12.2000,78.2300,Dharmapuri
Pappireddipatti Hills,11.9177,78.3687,Dharmapuri
Harur Hills,12.0500,78.4800,Dharmapuri
Vaniyambadi Hills,12.6800,78.6200,Dharmapuri
Pennagaram Hill Station,12.1343,77.8953,Dharmapuri
Pappireddipatti Reserve Forest,11.9177,78.3687,Dharmapuri
Dharmapuri Collectorate Park,12.1289,78.1594,Dharmapuri
VOC Park Harur,12.0500,78.4800,Dharmapuri
Pennagaram Municipal Park,12.1343,77.8953,Dharmapuri
Adhiyamankottai Archaeological Site,12.1000,78.2000,Dharmapuri
Tagadur Fort Ruins,12.1700,78.2000,Dharmapuri
Dharmapuri Clock Tower,12.1277,78.1582,Dharmapuri
Pennagaram Bus Stand Market,12.1343,77.8953,Dharmapuri
Pappireddipatti Market,11.9177,78.3687,Dharmapuri
Harur Shopping Street,12.0500,78.4800,Dharmapuri
Dharmapuri Silk Market,12.1290,78.1595,Dharmapuri
Hotel Vasantha Bhavan Dharmapuri,12.1291,78.1596,Dharmapuri
Junior Kuppanna Dharmapuri,12.1292,78.1597,Dharmapuri
Sree Annapoorna Restaurant,12.1293,78.1598,Dharmapuri
Grand Sweets Dharmapuri,12.1294,78.1599,Dharmapuri
Hogenakkal Riverside Restaurants,12.1182,77.7739,Dharmapuri
Kaveri Fish Curry Stalls,12.1182,77.7739,Dharmapuri
Dharmapuri Coffee House,12.1295,78.1600,Dharmapuri
Hogenakkal Herbal Oil Massage,12.1182,77.7739,Dharmapuri
Melagiri Forest Trekking,12.4000,78.3000,Dharmapuri
Kaveri River Fishing Spot,12.1182,77.7739,Dharmapuri
Theerthamalai Hill Trekking,12.5000,78.1000,Dharmapuri
Dharmapuri Handloom Weaving Center,12.1296,78.1601,Dharmapuri
Sitteri Reserve Forest Safari,12.3000,78.2000,Dharmapuri
Harur Lake Boating,12.0500,78.4800,Dharmapuri
Karimangalam Viewpoint,12.2500,78.2500,Dharmapuri
Dharmapuri Tribal Museum,12.1297,78.1602,Dharmapuri
Mettur Hydroelectric Project Tour,11.8038,77.8074,Dharmapuri
Yercaud Lake (Emerald Lake),11.7813,78.2028,Salem
Yercaud Botanical Garden,11.7750,78.2050,Salem
Yercaud Rose Garden,11.7820,78.2030,Salem
Shevaroy Temple,11.8200,78.2100,Salem
Lady's Seat Yercaud,11.7900,78.2150,Salem
Peeku Park Yercaud,11.7780,78.2040,Salem
Pagoda Point,11.7950,78.2200,Salem
Anna Park Yercaud,11.7790,78.2045,Salem
Bears Cave,11.7850,78.2080,Salem
32 km Loop Road Yercaud,11.7800,78.2000,Salem
Kiliyur Falls,11.7500,78.1800,Salem
Kolli Hills Agaya Gangai Falls,11.3500,78.3500,Salem
Pachaimalai Falls,11.2000,78.4500,Salem
1008 Shiva Temple,11.3500,78.3500,Salem
Siddhar Temple Kanjamalai,11.6000,78.1000,Salem
Kottai Mariamman Temple,11.6537,77.9982,Salem
Sugavaneshwarar Temple,11.6540,77.9985,Salem
Sri Raja Rajeswari Temple,11.6545,77.9990,Salem
ISKCON Temple Salem,11.6550,77.9995,Salem
Arulmigu Arupathi Thiruvasagam Temple,11.6535,77.9980,Salem
Mettur Dam,11.8038,77.8074,Salem
Mettur Dam Park,11.8038,77.8074,Salem
Thirumanimutharu River Dam,11.7000,78.0000,Salem
Sankagiri Fort,11.5000,77.8667,Salem
Salem Government Museum,11.6538,77.9983,Salem
Kurumbapatti Zoological Park,11.7200,77.8500,Salem
Anna Park Salem,11.6542,77.9987,Salem
Deer Park Salem,11.6547,77.9992,Salem
Children's Park Salem,11.6552,77.9997,Salem
Mookaneri Lake,11.6800,78.0200,Salem
Saradhambal Lake,11.6500,77.9900,Salem
Salem Main Bazaar,11.6539,77.9984,Salem
Yercaud Market,11.7813,78.2028,Salem
Salem Textiles Hub,11.6541,77.9986,Salem
Great Trails Yercaud,11.7815,78.2032,Salem
Saravana Bhavan Salem,11.6543,77.9988,Salem
Hotel Aryaas Salem,11.6544,77.9989,Salem
A2B Adyar Ananda Bhavan,11.6546,77.9991,Salem
Sri Krishna Sweets Salem,11.6548,77.9993,Salem
Sangeetha Restaurant Salem,11.6549,77.9994,Salem
Yercaud Lake Boating,11.7813,78.2028,Salem
Yercaud Trekking Trails,11.7800,78.2100,Salem
Kolli Hills Adventure Trek,11.3500,78.3500,Salem
Yercaud Coffee Plantations,11.7700,78.2200,Salem
Yercaud Orange Groves,11.7750,78.2150,Salem
Gents Seat Yercaud,11.7920,78.2180,Salem
Norton's Bungalow Viewpoint,11.7880,78.2120,Salem
Silk Farm Yercaud,11.7760,78.2060,Salem
Jamia Masjid Salem,11.6551,77.9996,Salem
Sri Chakra Mahameru Temple,11.6553,77.9998,Salem
Kalangi Siddhar Temple,11.7000,78.1500,Salem
Kalipatti Kandaswamy Temple,11.6200,77.9500,Salem
Arulmigu Alagirinathar Temple,11.6554,77.9999,Salem
Kailasanathar Temple Salem,11.6555,78.0000,Salem
Skandasramam Temple,11.6556,78.0001,Salem
Linga Bhairavi Temple,11.6557,78.0002,Salem
Arulmigu Durga Parameshwari Temple,11.6558,78.0003,Salem
Sundhara Kandhaswamy Kovil,11.6559,78.0004,Salem
Kottai Perumal Koil,11.6560,78.0005,Salem
Servarayan Hill Temple Yercaud,11.8200,78.2100,Salem
Kalvarayan Hills,11.8000,78.7000,Salem
Kalvarayan Hills Waterfalls,11.8200,78.7200,Salem
Kalvarayan Hills Viewpoint,11.8100,78.7100,Salem
Karadiyur Viewpoint,11.7600,78.1900,Salem
Thottakarai Waterfalls,11.6000,78.2000,Salem
Puliyancholai Waterfalls,11.5500,78.1500,Salem
Hasanur Falls,11.7000,76.9000,Salem
Sadaiyandi Falls,11.6500,78.1200,Salem
Oothumalai Hill,11.7300,78.1700,Salem
Kanjamalai Hills,11.6000,78.1000,Salem
Pyramids Point Yercaud,11.7940,78.2220,Salem
Four Roads Junction Viewpoint,11.7850,78.2100,Salem
Big Lake Yercaud,11.7813,78.2028,Salem
Cauvery Peak Kolli Hills,11.3800,78.3800,Salem
Arapaleeswarar Temple Kolli Hills,11.3500,78.3500,Salem
Botanical Survey Garden Yercaud,11.7770,78.2070,Salem
Montfort School Yercaud Heritage,11.7800,78.2050,Salem
Amirthi Forest Reserve,12.7300,79.0550,Salem
Paravasa Ulagam Amusement Park,11.6600,78.0300,Salem
Salem Steel Plant Viewing Gallery,11.6300,77.9700,Salem
Jamia Masjid Salem,11.6551,77.9996,Salem
CSI Zion Church Salem,11.6561,78.0006,Salem
Vinayaka Mission Temple,11.6562,78.0007,Salem
Arulmigu Periyapalayathamman Temple,11.6563,78.0008,Salem
Thirumanimutharu River View,11.7000,78.0000,Salem
Salem Race Course,11.6564,78.0009,Salem
Salem Collectorate Park,11.6565,78.0010,Salem
1868 Market Salem,11.6566,78.0011,Salem
Cherry Road Shopping,11.6567,78.0012,Salem
Hasthampatti Market,11.6568,78.0013,Salem
Salem Junction Shopping Area,11.6569,78.0014,Salem
Hotel Junior Kuppanna Salem,11.6570,78.0015,Salem
Vasantha Bhavan Salem,11.6571,78.0016,Salem
Sree Annapoorna Salem,11.6572,78.0017,Salem
Grand Sweets Salem,11.6573,78.0018,Salem
TGI Star Yercaud,11.7825,78.2035,Salem
The Brew Room Yercaud,11.7830,78.2040,Salem
Thalappakatti Restaurant Salem,11.6574,78.0019,Salem
Kolli Hills Coffee Estates,11.3500,78.3500,Salem
Salem Mango Orchards,11.6400,77.9800,Salem
Vivekananda Rock Memorial,8.0687,77.5500,Kanyakumari
Thiruvalluvar Statue,8.0700,77.5510,Kanyakumari
Gandhi Memorial Mandapam,8.0772,77.5475,Kanyakumari
Tsunami Memorial,8.0780,77.5480,Kanyakumari
Kanyakumari Beach (Triveni Sangam),8.0800,77.5450,Kanyakumari
Sanguthurai Beach,8.0900,77.5500,Kanyakumari
Sothavilai Beach,8.0600,77.5300,Kanyakumari
Muttom Beach,8.1400,77.3167,Kanyakumari
Chothavilai Beach,8.0650,77.5350,Kanyakumari
Sunset Point,8.0790,77.5460,Kanyakumari
Sunrise Point,8.0800,77.5500,Kanyakumari
View Tower Kanyakumari,8.0785,77.5470,Kanyakumari
Kanyakumari Lighthouse,8.0775,77.5465,Kanyakumari
Kumari Amman Temple (Bhagavathy Amman),8.0779,77.5473,Kanyakumari
Suchindram Thanumalayan Temple,8.1500,77.4500,Kanyakumari
Sthanumalayan Temple,8.1500,77.4500,Kanyakumari
Nagaraja Temple,8.1520,77.4520,Kanyakumari
Guganathaswamy Temple,8.0820,77.5490,Kanyakumari
Thirparappu Shiva Temple,8.2167,77.3000,Kanyakumari
Our Lady of Ransom Church,8.0810,77.5485,Kanyakumari
St. Xavier's Church,8.0830,77.5495,Kanyakumari
Holy Cross Church Kottar,8.2000,77.4000,Kanyakumari
Thirparappu Falls (Thirparappu Aruvi),8.2167,77.3000,Kanyakumari
Olakaruvi Falls,8.2500,77.2500,Kanyakumari
Courtallam Falls (Near Kanyakumari),8.9300,77.2800,Kanyakumari
Padmanabhapuram Palace,8.2446,77.3368,Kanyakumari
Vattakottai Fort,8.1333,77.3167,Kanyakumari
Udayagiri Fort,8.2667,77.4333,Kanyakumari
Mathur Hanging Bridge (Aqueduct),8.3833,77.2833,Kanyakumari
Chitharal Jain Temples (Rock-Cut),8.2000,77.2000,Kanyakumari
Kanyakumari Wax Museum,8.0795,77.5478,Kanyakumari
Kamarajar Mani Mandapam,8.0788,77.5476,Kanyakumari
Kanyakumari Main Bazaar,8.0805,77.5482,Kanyakumari
Seashell Market,8.0812,77.5488,Kanyakumari
Handloom Shopping Center,8.0815,77.5490,Kanyakumari
Sea View Restaurant,8.0798,77.5479,Kanyakumari
Saravana Bhavan Kanyakumari,8.0802,77.5481,Kanyakumari
Hotel Aryaas Kanyakumari,8.0808,77.5486,Kanyakumari
A2B Adyar Ananda Bhavan,8.0818,77.5492,Kanyakumari
Sangam Restaurant,8.0825,77.5496,Kanyakumari
Fresh Fish Market Restaurants,8.0835,77.5500,Kanyakumari
Vivekananda Rock Ferry Ride,8.0770,77.5472,Kanyakumari
Swimming at Muttom Beach,8.1400,77.3167,Kanyakumari
Vivekananda Kendra,8.0787,77.5475,Kanyakumari
Children's Park Kanyakumari,8.0822,77.5494,Kanyakumari
Thirparappu Dam Park,8.2167,77.3000,Kanyakumari
Vivekananda Mandapam,8.0790,77.5477,Kanyakumari
Nagercoil Clock Tower,8.1833,77.4333,Kanyakumari
Baywatch Amusement Park,8.0950,77.5550,Kanyakumari
Pechiparai Dam,8.4667,77.3167,Kanyakumari
Vattaparai Falls,8.4500,77.3000,Kanyakumari
Kaalikesam Falls,8.2300,77.2800,Kanyakumari
Ulakkai Aruvi,8.2400,77.2700,Kanyakumari
Valli Chunai Kumarakoil,8.3000,77.2500,Kanyakumari
Marunthu Kottai Hill,8.2800,77.2600,Kanyakumari
Kumarakovil Subramanya Swamy Temple,8.3000,77.2500,Kanyakumari
St. Catherine Church Eraviputhenthurai,8.0500,77.5200,Kanyakumari
St. Thasmnavis Matha Church,8.0840,77.5498,Kanyakumari
St. Antony's Church Nagercoil,8.1850,77.4350,Kanyakumari
Holy Cross Church Nagercoil,8.1860,77.4360,Kanyakumari
Mandaikadu Bhagavathy Amman Temple,8.1667,77.4167,Kanyakumari
Arulmigu Bhagavathy Amman Temple Nagercoil,8.1870,77.4370,Kanyakumari
Arulmigu Suchindram Perumal Temple,8.1500,77.4500,Kanyakumari
Baywatch Water Theme Park,8.0950,77.5550,Kanyakumari
Chitharal Hill,8.2000,77.2000,Kanyakumari
Manavalakurichi Beach,8.1300,77.3500,Kanyakumari
Vallavilai Beach,8.0700,77.5400,Kanyakumari
Colachel Beach,8.1800,77.2500,Kanyakumari
Thengapattanam Beach,8.0300,77.4800,Kanyakumari
Kanyakumari Aquarium,8.0792,77.5477,Kanyakumari
Government Museum Nagercoil,8.1880,77.4380,Kanyakumari
Bharat Mata Temple,8.0783,77.5474,Kanyakumari
Pechiparai Reservoir,8.4667,77.3167,Kanyakumari
Perunchani Dam,8.4167,77.3500,Kanyakumari
Chittar Dam,8.3500,77.3000,Kanyakumari
Mamandur Dam,8.3800,77.3200,Kanyakumari
Manakkudy Adi Kesava Perumal Temple,8.1100,77.4000,Kanyakumari
Colachel Fort,8.1800,77.2500,Kanyakumari
Colachel Battle Memorial,8.1800,77.2500,Kanyakumari
Mathoor Hanging Trough,8.3833,77.2833,Kanyakumari
Sanguthurai Beach Sunset View,8.0900,77.5500,Kanyakumari
Nagercoil Main Market,8.1890,77.4390,Kanyakumari
Gandhi Smarak Sangrahalaya,8.0793,77.5478,Kanyakumari
Vivekananda Pictorial Exhibition,8.0794,77.5479,Kanyakumari
Kanyakumari Government Art Museum,8.0796,77.5480,Kanyakumari
Vattakottai Beach,8.1333,77.3167,Kanyakumari
Sotovilai Beach Sunrise Point,8.0600,77.5300,Kanyakumari
Navaladi Thamaraikulam Temple,8.1200,77.4200,Kanyakumari
Thuckalay Market,8.3167,77.3333,Kanyakumari
Kanyakumari Pearl Shopping,8.0813,77.5489,Kanyakumari
Hotel Sun Restaurant,8.0806,77.5484,Kanyakumari
Triveni Restaurant,8.0826,77.5497,Kanyakumari
Hotel Bharath,8.0816,77.5491,Kanyakumari
Hotel Seashore,8.0828,77.5498,Kanyakumari
Cape Comorin Hotel Restaurant,8.0838,77.5502,Kanyakumari
Nagercoil Junction Shopping Area,8.1900,77.4400,Kanyakumari
Sri Vattakottai Sivan Temple,8.1333,77.3167,Kanyakumari
Coral Reef Walk Vivekananda Rock,8.0687,77.5500,Kanyakumari
Thengapattanam Estuary,8.0300,77.4800,Kanyakumari
Nagercoil Nadar Mahajan Sangam,8.1910,77.4410,Kanyakumari
Suruli Falls,9.6500,77.3500,Theni
Chinna Suruli Falls,9.6400,77.3400,Theni
Kumbakkarai Falls,9.7000,77.3000,Theni
Kumbakarai Main Falls,9.7000,77.3000,Theni
Meghamalai (High Wavy Mountains),9.6775,77.3997,Theni
Meghamalai Viewpoint,9.6800,77.4000,Theni
Kurangani Hills,9.7500,77.4500,Theni
Maharaja Mettu,9.6850,77.4050,Theni
Vaigai Dam,9.8667,77.5333,Theni
Vaigai Dam Park,9.8667,77.5333,Theni
Shanmuganathi Dam,9.6000,77.2500,Theni
Sothuparai Dam,9.8500,77.4500,Theni
Manalar Dam,9.7200,77.3800,Theni
Meghamalai Wildlife Sanctuary,9.6775,77.3997,Theni
Meghamalai Tiger Reserve,9.6775,77.3997,Theni
Meghamalai Tea Estates,9.6800,77.4020,Theni
High Wavy Tea Estate Tour,9.6820,77.4040,Theni
Kolukkumalai Tea Estate (Border),9.6900,77.4100,Theni
Kuchanur Sri Saneeswara Temple,10.0000,77.5500,Theni
Devadanapatti Kamakshi Amman Temple,9.9500,77.4800,Theni
Kailasanathar Temple Cave,9.9600,77.4700,Theni
Veerapandi Gowmariamman Temple,9.9260,77.4596,Theni
Mangaladevi Temple Thekkady Border,9.5500,77.2000,Theni
Vellappar Temple Mavuthu,9.7100,77.3700,Theni
Murugan Temple Meghamalai,9.6780,77.4000,Theni
Colonel Pennycuick Memorial,9.8667,77.5333,Theni
Bodi Hills,10.0500,77.4000,Theni
Theertha Thotti Sacred Pool,9.6600,77.3600,Theni
Mavuthu Natural Springs,9.7100,77.3700,Theni
Theni Main Market,10.0104,77.4768,Theni
Cumbum Grape Market,9.7367,77.2811,Theni
Theni Textile Market,10.0110,77.4775,Theni
Saravana Bhavan Theni,10.0105,77.4770,Theni
Hotel Aryaas Theni,10.0106,77.4772,Theni
Thooppukadai Mess,10.0108,77.4774,Theni
A2B Adyar Ananda Bhavan,10.0109,77.4776,Theni
Sri Krishna Sweets,10.0112,77.4778,Theni
Meghamalai Trekking,9.6775,77.3997,Theni
Kurangani Hills Trek,9.7500,77.4500,Theni
Meghamalai Jeep Safari,9.6775,77.3997,Theni
Theni Children's Park,10.0113,77.4780,Theni
Periyakulam Town Park,10.1167,77.5417,Theni
Vellimalai Viewpoint,9.9800,77.4400,Theni
Kambam Valley View,9.7367,77.2811,Theni
Meghamalai Sunset Point,9.6785,77.4005,Theni
Cumbum Valley Vineyards,9.7367,77.2811,Theni
Theni Organic Farms Tour,10.0115,77.4782,Theni
Kodi Lingam Sacred Site,9.7300,77.3500,Theni
Ellapatti River,9.9700,77.4600,Theni
Periyakulam Lake,10.1167,77.5417,Theni
Arulmigu Balasubramanya Temple,10.0116,77.4784,Theni
Veerappa Ayyanar Temple,10.0117,77.4786,Theni
Kamatchi Amman Temple,10.0118,77.4788,Theni
Poondi Sanneeswaran Temple,10.0119,77.4790,Theni
Arulmigu Vinayaga Temple,10.0120,77.4792,Theni
Chokkanatha Swamy Temple Periyakulam,10.1167,77.5417,Theni
Arulmigu Maha Saraswathi Temple,10.0121,77.4794,Theni
Kottai Mariamman Temple Periyakulam,10.1170,77.5420,Theni
Arulmigu Kumara Swamy Temple Uthamapalayam,9.8067,77.3347,Theni
Vellimalai Murugan Temple,9.9800,77.4400,Theni
Varusanadu Hills,9.8000,77.5000,Theni
Vellimalai Hills,9.9800,77.4400,Theni
Meghamalai Cardamom Estates,9.6790,77.4010,Theni
Meghamalai Coffee Plantations,9.6795,77.4015,Theni
Cloudy Valley Meghamalai,9.6800,77.4020,Theni
Elephant Valley Meghamalai,9.6810,77.4030,Theni
Semmalathevanpatti Water Dam,9.9000,77.4500,Theni
Periyar Dam Thekkady Border,9.5000,77.1500,Theni
Cumbum Valley,9.7367,77.2811,Theni
Cumbum Lake,9.7367,77.2811,Theni
Chinnamanur Town,9.8397,77.3831,Theni
Bodi Hills Viewpoint,10.0500,77.4000,Theni
Uthamapalayam Church,9.8067,77.3347,Theni
St. Mary's Church Periyakulam,10.1175,77.5425,Theni
Theni Government Museum,10.0122,77.4796,Theni
Periyakulam Sugar Factory Heritage,10.1180,77.5430,Theni
Theni District Park,10.0123,77.4798,Theni
Uthamapalayam Town Park,9.8067,77.3347,Theni
Chinnamanur Children's Park,9.8397,77.3831,Theni
Manjakudi Falls,9.7400,77.3200,Theni
Tiger Falls Bodi,10.0500,77.4000,Theni
Veerapandi Temple Festival Ground,9.9260,77.4596,Theni
Theni Collectorate Heritage Building,10.0124,77.4800,Theni
Periyakulam Bus Stand Market,10.1185,77.5435,Theni
Bodi Market,10.0500,77.4000,Theni
Uthamapalayam Shopping Street,9.8067,77.3347,Theni
Hotel Vasantha Bhavan Theni,10.0125,77.4802,Theni
Junior Kuppanna Theni,10.0126,77.4804,Theni
Sree Annapoorna Theni,10.0127,77.4806,Theni
Grand Sweets Theni,10.0128,77.4808,Theni
Cafe Coffee Day Periyakulam,10.1190,77.5440,Theni
Meghamalai Nature Stay,9.6775,77.3997,Theni
Meghamalai Bird Watching,9.6780,77.4000,Theni
Vaigai River Boating,9.8667,77.5333,Theni
Sothuparai Dam Boating,9.8500,77.4500,Theni
Meghamalai Organic Spice Farm,9.6785,77.4005,Theni
Kambam Town Heritage Walk,9.7367,77.2811,Theni
Cumbum Grapes Farm Visit,9.7367,77.2811,Theni
Meghamalai Pepper Plantations,9.6790,77.4010,Theni
Theni Railway Station Heritage,10.0129,77.4810,Theni
Adiyogi Shiva Statue & Isha Yoga Centre,11.0000,76.7350,Coimbatore
Dhyanalinga Temple,11.0000,76.7350,Coimbatore
Marudhamalai Murugan Temple,11.0433,76.8247,Coimbatore
Perur Pateeswarar Temple,11.0231,76.9131,Coimbatore
Eachanari Vinayagar Temple,10.9800,76.9700,Coimbatore
Koniamman Temple,11.0050,76.9660,Coimbatore
Vellingiri Hill Temple,10.9667,76.7333,Coimbatore
Masaniamman Temple Anaimalai,10.5800,76.9500,Coimbatore
Siruvani Waterfalls (Kovai Kutralam),10.8833,76.7167,Coimbatore
Vaidehi Falls (Monkey Falls),10.5200,76.9000,Coimbatore
Monkey Falls,10.5200,76.9000,Coimbatore
Kodiveri Falls,11.4731,77.2964,Coimbatore
Valparai Hill Station,10.3700,76.9700,Coimbatore
Valparai Tea Estates,10.3800,76.9800,Coimbatore
Anaikatti Hills,10.9500,76.7500,Coimbatore
Aliyar Dam,10.4833,76.7333,Coimbatore
Aliyar Dam Park,10.4833,76.7333,Coimbatore
Siruvani Dam,10.8833,76.7167,Coimbatore
Parambikulam Dam,10.3667,76.8667,Coimbatore
Indira Gandhi Wildlife Sanctuary,10.4000,76.9000,Coimbatore
Salim Ali Centre for Ornithology,11.0300,76.9500,Coimbatore
Black Thunder Water Theme Park,10.5397,76.7597,Coimbatore
Kovai Kondattam Amusement Park,11.0800,77.0500,Coimbatore
Maharaja Theme Park,11.1000,77.0600,Coimbatore
VOC Park and Zoo,11.0200,76.9800,Coimbatore
Gandhi Park (Singanallur),11.0100,77.0400,Coimbatore
Bharathi Park,10.9950,76.9650,Coimbatore
Botanical Garden TNAU,11.0150,76.9300,Coimbatore
GEDEE Car Museum,11.0400,76.9900,Coimbatore
Gass Forest Museum,11.0250,76.9750,Coimbatore
Tamil Nadu Police Museum,11.0000,76.9700,Coimbatore
Regional Science Centre & Planetarium,10.9850,76.9550,Coimbatore
Brookefields Mall,11.0180,76.9680,Coimbatore
Prozone Mall,11.0350,76.9850,Coimbatore
RS Puram Shopping Area,11.0070,76.9580,Coimbatore
Town Hall Market,11.0050,76.9650,Coimbatore
Hari Bhavanam,11.0060,76.9640,Coimbatore
Annapoorna Restaurant,11.0080,76.9620,Coimbatore
That's Y Food,11.0090,76.9630,Coimbatore
Shree Anandhaas,11.0100,76.9640,Coimbatore
Sree Annapoorna Sree Gowrishankar,11.0110,76.9650,Coimbatore
Junior Kuppanna,11.0120,76.9660,Coimbatore
Vellingiri Hills Trekking,10.9667,76.7333,Coimbatore
Rock Climbing at Marudhamalai,11.0433,76.8247,Coimbatore
Kovai Courtallam River,10.8833,76.7167,Coimbatore
Mahatma Gandhi Memorial,11.0130,76.9670,Coimbatore
Singanallur Lake,11.0100,77.0400,Coimbatore
Race Course,11.0250,76.9600,Coimbatore
Codissia Trade Fair Complex,11.0500,77.0000,Coimbatore
Black Thunder Mountain,10.5400,76.7600,Coimbatore
Puliakulam Vinayagar Temple,11.0300,76.9850,Coimbatore
Arulmigu Subramaniya Swamy Temple Anuvavi,10.9900,76.9400,Coimbatore
Vana Bathrakaliamman Temple Mettupalayam,11.3000,76.9333,Coimbatore
Aranganathar Temple Karamadai,11.2400,76.9600,Coimbatore
Saibaba Temple Coimbatore,11.0140,76.9680,Coimbatore
Sree Ayyappan Temple Coimbatore,11.0150,76.9690,Coimbatore
Balaji Temple Valparai,10.3700,76.9700,Coimbatore
Then Thiruppathy Temple Sirumugai,10.9000,76.7800,Coimbatore
Kamakshi Amman Temple RS Puram,11.0070,76.9580,Coimbatore
Sarada Temple Race Course,11.0250,76.9600,Coimbatore
Jain Temple RS Puram,11.0075,76.9585,Coimbatore
Athjar Jamad Mazid Mosque,11.0160,76.9700,Coimbatore
Gurudwara RS Puram,11.0072,76.9583,Coimbatore
Immanuel Church Uppilipalayam,11.0350,76.9750,Coimbatore
Christ Church Trichy Road,11.0200,77.0000,Coimbatore
Anthoniar Church Puliakulam,11.0300,76.9850,Coimbatore
Chinnakallar Falls,10.5500,76.9200,Coimbatore
Athirapally Waterfalls,10.2850,76.5700,Coimbatore
Thandumariamman Temple Avinashi Road,11.0400,77.0200,Coimbatore
Anubhavi Subramaniar Temple,11.0450,76.8300,Coimbatore
Cholayar Dam Valparai,10.4000,76.9200,Coimbatore
Pillur Dam,11.3500,76.7500,Coimbatore
Kadamparai Power House,10.4200,76.9400,Coimbatore
Baraliyadhoo Karamadai Forest,11.2500,76.9700,Coimbatore
Horticulture Farms Kallar,11.3800,76.9500,Coimbatore
TNAU Insect Museum,11.0150,76.9300,Coimbatore
Dhoni Hills,10.3500,77.0500,Coimbatore
Dhoni Waterfalls,10.3500,77.0500,Coimbatore
Anaikatti Nature Trails,10.9500,76.7500,Coimbatore
Velliangiri View Point,10.9667,76.7333,Coimbatore
Fun Republic Mall,11.0320,76.9820,Coimbatore
DB City Mall,11.0170,76.9710,Coimbatore
Cross Cut Road Shopping,11.0040,76.9600,Coimbatore
Oppanakkara Street Shopping,11.0030,76.9590,Coimbatore
Gandhipuram Market,11.0180,76.9720,Coimbatore
Ukkadam Flower Market,11.0000,76.9550,Coimbatore
Hotel Kannappa,11.0190,76.9730,Coimbatore
Haribhavanam North Indian,11.0060,76.9640,Coimbatore
The French Door,11.0200,76.9740,Coimbatore
Peelamedu Naidu Hall,11.0300,76.9900,Coimbatore
Ukkadam Lake,11.0000,76.9550,Coimbatore
Sulur Lake,11.0200,77.1200,Coimbatore
Valankulam Lake,11.0350,76.9950,Coimbatore
Kovai Kondattam Aqua Park,11.0800,77.0500,Coimbatore
Birds Sanctuary Singanallur Lake,11.0100,77.0400,Coimbatore
Isha Home School Campus,11.0000,76.7350,Coimbatore
Textile Markets Coimbatore,11.0050,76.9650,Coimbatore
Vaitheki Falls Narasipuram,10.9200,76.8000,Coimbatore
PSG College of Arts Museum,11.0250,76.9850,Coimbatore
Coimbatore Airport Viewing Gallery,11.0300,77.0450,Coimbatore
Sri Ranganathaswamy Temple Srirangam,10.8566,78.6972,Tiruchirappalli
Rock Fort Temple (Ucchi Pillayar),10.8285,78.6971,Tiruchirappalli
Thayumanaswamy Temple,10.8280,78.6965,Tiruchirappalli
Jambukeswarar Temple (Thiruvanaikaval),10.8650,78.7050,Tiruchirappalli
Samayapuram Mariamman Temple,10.9667,78.5333,Tiruchirappalli
Erumbeeswarar Temple,10.8100,78.6850,Tiruchirappalli
Brahmapureeswarar Temple,10.8300,78.6900,Tiruchirappalli
Vekkali Amman Temple,10.8400,78.6950,Tiruchirappalli
Sri Subramanya Swamy Temple Vayalur,10.9500,78.6200,Tiruchirappalli
Thirunedungulam Nathar Temple,10.8200,78.6800,Tiruchirappalli
St. Lourdes Church,10.8050,78.6950,Tiruchirappalli
St. Joseph's Church,10.8100,78.7000,Tiruchirappalli
Natharsha Dargah,10.8150,78.7050,Tiruchirappalli
Kallanai Dam (Grand Anicut),10.9583,79.0194,Tiruchirappalli
Upper Anaicut (Mukkombu),10.8050,78.7800,Tiruchirappalli
Puliyancholai Falls,11.5500,78.1500,Tiruchirappalli
Agaya Gangai Waterfalls,11.3500,78.3500,Tiruchirappalli
Pachamalai Hills,11.2000,78.4500,Tiruchirappalli
Kolli Hills,11.3500,78.3500,Tiruchirappalli
Government Museum Trichy,10.8166,78.6965,Tiruchirappalli
Railway Museum Trichy,10.8100,78.6900,Tiruchirappalli
Anna Science Centre & Planetarium,10.8000,78.6850,Tiruchirappalli
Butterfly Park Srirangam,10.8600,78.7000,Tiruchirappalli
Trichy Birds Park,10.8120,78.6920,Tiruchirappalli
Anna Memorial Park,10.7950,78.6800,Tiruchirappalli
Children's Park Trichy,10.8130,78.6930,Tiruchirappalli
Chokkanatha Nayak Palace,10.8250,78.6950,Tiruchirappalli
Chinna Kadai Street,10.8210,78.6920,Tiruchirappalli
Big Bazaar Street,10.8220,78.6930,Tiruchirappalli
Trichy Main Guard Gate Market,10.8230,78.6940,Tiruchirappalli
Puthur Market,10.8000,78.7100,Tiruchirappalli
Femina Shopping Mall,10.8140,78.6940,Tiruchirappalli
Vasantha Bhavan,10.8150,78.6950,Tiruchirappalli
Sangeetha Restaurant Trichy,10.8160,78.6960,Tiruchirappalli
Hotel Kannappa,10.8170,78.6970,Tiruchirappalli
Saravana Bhavan Trichy,10.8180,78.6980,Tiruchirappalli
Diana Restaurant,10.8190,78.6990,Tiruchirappalli
A2B Adyar Ananda Bhavan,10.8200,78.7000,Tiruchirappalli
Rock Fort Climb (437 Steps),10.8285,78.6971,Tiruchirappalli
Kaveri River Boating,10.8500,78.7200,Tiruchirappalli
Teppakulam Temple Tank,10.8550,78.6950,Tiruchirappalli
Kaveri River Viewpoint,10.8400,78.7100,Tiruchirappalli
Gandhi Market Complex,10.8240,78.6945,Tiruchirappalli
Trichy Airport Viewing Area,10.7650,78.7097,Tiruchirappalli
Ucchi Pillayar Rockfort Viewpoint,10.8285,78.6971,Tiruchirappalli
Cauvery Delta Region Tour,10.9000,79.0000,Tiruchirappalli
Woraiyur Ancient Chola Capital,10.8333,78.7000,Tiruchirappalli
Trichy Heritage Walk,10.8200,78.6900,Tiruchirappalli
Srirangam Island,10.8600,78.7000,Tiruchirappalli
Trichy Trade Centre,10.8250,78.6955,Tiruchirappalli
Varahi Amman Temple,10.8300,78.6850,Tiruchirappalli
Gunaseelam Vishnu Temple,10.8350,78.6900,Tiruchirappalli
Lalgudi Panchavarnaswamy Temple,10.8700,78.8200,Tiruchirappalli
Amma Mandapam,10.8260,78.6960,Tiruchirappalli
Arulmigu Prasanna Venkatesa Perumal Temple,10.8270,78.6970,Tiruchirappalli
Pushpavaneswarar Temple,10.8280,78.6980,Tiruchirappalli
Mariamman Teppakulam,10.8550,78.6950,Tiruchirappalli
Arulmigu Manachanallur Balasubramaniya Swamy Temple,10.9500,78.8500,Tiruchirappalli
Arulmigu Sri Aiyarappar Temple Thiruvaiyaru,10.8833,79.1000,Tiruchirappalli
Narasimha Temple Namakkal,11.2208,78.1674,Tiruchirappalli
All Saints Church Puthur,10.8000,78.7100,Tiruchirappalli
Christ Church,10.8290,78.6990,Tiruchirappalli
Holy Redeemer Church Cantonment,10.7950,78.7050,Tiruchirappalli
Immanuel Church Ramalinga Nagar,10.8050,78.6950,Tiruchirappalli
Pazhamudhircholai Murugan Temple,10.8400,78.6700,Tiruchirappalli
Nakshatra Vanam Park,10.8100,78.6880,Tiruchirappalli
Mukkombu Picnic Spot,10.8050,78.7800,Tiruchirappalli
Kaveri River Park,10.8450,78.7150,Tiruchirappalli
Karumandapam Bus Stand Park,10.8300,78.6960,Tiruchirappalli
Jamal Mohamed College Park,10.8110,78.6890,Tiruchirappalli
Cantonment Park,10.7950,78.7050,Tiruchirappalli
Trichy Deer Park Lalgudi,10.8700,78.8200,Tiruchirappalli
Perumal Malai Hills,10.7500,78.6000,Tiruchirappalli
Ettukudi Village Tourism,10.9200,78.7500,Tiruchirappalli
Thiruvaiyaru Music Festival Ground,10.8833,79.1000,Tiruchirappalli
Tiruchirappalli Fort Ruins,10.8253,78.6891,Tiruchirappalli
Tiruverumbur Manikkavannar Temple,10.8900,78.7300,Tiruchirappalli
Manachanallur Lake,10.9500,78.8500,Tiruchirappalli
Kollidam River Viewpoint,10.8700,78.7400,Tiruchirappalli
Trichy Chinna Kadai,10.8210,78.6920,Tiruchirappalli
NSB Road Shopping,10.8310,78.6970,Tiruchirappalli
Williams Road Market,10.8320,78.6980,Tiruchirappalli
Thennur Market,10.8600,78.7300,Tiruchirappalli
Srirangam Market Street,10.8600,78.7000,Tiruchirappalli
Amma Shopping Complex,10.8330,78.6990,Tiruchirappalli
Sri Krishna Sweets Trichy,10.8340,78.7000,Tiruchirappalli
Junior Kuppanna Trichy,10.8350,78.7010,Tiruchirappalli
Grand Sweets Trichy,10.8360,78.7020,Tiruchirappalli
Hotel Gajapriya,10.8370,78.7030,Tiruchirappalli
Meridian Restaurant,10.8380,78.7040,Tiruchirappalli
Hotel Meenakshi Bhavan,10.8390,78.7050,Tiruchirappalli
Vincent Restaurant,10.8400,78.7060,Tiruchirappalli
Mukkombu Dam Park,10.8050,78.7800,Tiruchirappalli
Lower Anaicut,10.8000,78.7900,Tiruchirappalli
Ariyamangalam Forest Reserve,10.8300,78.6500,Tiruchirappalli
Bishop Heber College Campus,10.7900,78.7000,Tiruchirappalli
Kajamalai Temple Viewpoint,10.8320,78.6900,Tiruchirappalli
Trichy Junction Railway Heritage,10.8100,78.6900,Tiruchirappalli
Srirangam Art Gallery,10.8600,78.7000,Tiruchirappalli
Pattabiraman Temple Srirangam,10.8570,78.6980,Tiruchirappalli
Pasupatheswarar Temple,10.9577,78.0809,Karur
Kalyana Venkataramana Swamy Temple,10.9580,78.0812,Karur
Arulmigu Kalyana Pasupatheswarar Temple,10.9577,78.0809,Karur
Sadasiva Brahmendra Samadhi Nerur,10.9964,78.1435,Karur
Kashi Vishwanatha Temple Nerur,10.9964,78.1435,Karur
Mariamman Temple Karur,10.9585,78.0815,Karur
Vennamalai Murugan Temple,10.9200,78.1200,Karur
Thirumukkoodalur Temple,10.9590,78.0820,Karur
Pugazhimalai Murugan Temple,10.9000,78.1000,Karur
Amrithagateswarar Temple,10.9595,78.0825,Karur
Mayanur Dam & Barrage,10.9056,78.1664,Karur
Ponnaniyaru Dam,10.9700,78.1100,Karur
Aathupalayam Dam,10.9800,78.1200,Karur
Kovilur Dam,10.9500,78.0900,Karur
Amaravathi River Check Dam,10.9600,78.0850,Karur
Pugalur Dam,11.0000,78.2500,Karur
Amaravathi Children's Park,10.9600,78.0820,Karur
Rajaji Park Karur,10.9605,78.0830,Karur
Mayanur Check Dam Park,10.9056,78.1664,Karur
Children's Park Karur,10.9610,78.0835,Karur
Karur Government Museum,10.9615,78.0840,Karur
Karur Fort Ruins,10.9620,78.0845,Karur
Amaravathi River Bank,10.9625,78.0850,Karur
Kaveri River View Point,10.9056,78.1664,Karur
Nerur River Bank,10.9964,78.1435,Karur
Amaravathi River Bed Archaeological Site,10.9630,78.0855,Karur
Karur Home Textile Market,10.9635,78.0860,Karur
Karur Main Bazaar,10.9640,78.0865,Karur
Textile Showrooms Karur,10.9645,78.0870,Karur
Handloom Weaving Centers,10.9650,78.0875,Karur
Vasantha Bhavan Karur,10.9655,78.0880,Karur
Hotel Radhika,10.9660,78.0885,Karur
Saravana Bhavan Karur,10.9665,78.0890,Karur
A2B Adyar Ananda Bhavan,10.9670,78.0895,Karur
Ponnusamy Restaurant,10.9675,78.0900,Karur
Sri Krishna Sweets,10.9680,78.0905,Karur
Karur Agricultural Farm Tour,10.9685,78.0910,Karur
Coconut Grove Visit,10.9690,78.0915,Karur
Karur-Trichy Railway Bridge View,10.9695,78.0920,Karur
Amaravathi Bridge,10.9600,78.0820,Karur
Kaveri Bridge Karur,10.9056,78.1664,Karur
Karur Agraharam Heritage Walk,10.9577,78.0809,Karur
Ancient Sangam Era Sites,10.9700,78.0925,Karur
Kodumudi Temples,11.0833,77.8833,Karur
Velayuthampalayam Village Tour,10.9705,78.0930,Karur
Evening Walk at Amaravathi Banks,10.9600,78.0820,Karur
Bird Watching at Mayanur,10.9056,78.1664,Karur
Textile Factory Tour,10.9710,78.0935,Karur
Karur Bus Stand Market,10.9715,78.0940,Karur
Rural Crafts Center Karur,10.9720,78.0945,Karur
Sri Abayapradhana Ranganathar Temple,10.9725,78.0950,Karur
Sri Karuvur Mariamman Temple,10.9585,78.0815,Karur
Sri Shirdi Sai Baba Temple Karur,10.9730,78.0955,Karur
Sri Maha Kaliyamman Temple,10.9735,78.0960,Karur
Sri Vangalamman Temple,10.9740,78.0965,Karur
Sri Vasavi Kannika Parameeswari Amman Temple,10.9745,78.0970,Karur
Agneeshwarar Temple,10.9750,78.0975,Karur
Thirukkampuliyur Sellandiamman Temple,10.9755,78.0980,Karur
Mutharaiyar Kottai Temple,10.9760,78.0985,Karur
Arulmigu Lakshmi Narayana Perumal Temple,10.9765,78.0990,Karur
Mayanur Barrage Picnic Spot,10.9056,78.1664,Karur
Kaveri River Mayanur,10.9056,78.1664,Karur
Thanthoni River View,10.9770,78.0995,Karur
Noyyal River Banks,11.0000,77.0000,Karur
Kulithalai Dam,11.0000,78.4000,Karur
Kallanai Dam Karur,10.9583,79.0194,Karur
Thadagam Dam,10.9775,78.1000,Karur
Paramathi Hills,11.0500,78.2000,Karur
Pachamalai Hills Trek,11.2000,78.4500,Karur
Aravakurichi Forest Area,10.9780,78.1005,Karur
Karur Rock Climbing Spots,10.9785,78.1010,Karur
Kaveri River Rafting Karur,10.9056,78.1664,Karur
Amaravathi Dam Camping,10.9600,78.0850,Karur
Karur Heritage Temple Circuit,10.9577,78.0809,Karur
Kovai Kutralam Falls Karur,10.8833,76.7167,Karur
Karur Eco Park,10.9790,78.1015,Karur
Poondi Park,10.9795,78.1020,Karur
Karur Corporation Park,10.9800,78.1025,Karur
Kulithalai Town Park,11.0000,78.4000,Karur
Pugalur Town Heritage,11.0000,78.2500,Karur
Nerur Town Walking Tour,10.9964,78.1435,Karur
Karur Clock Tower,10.9577,78.0809,Karur
Amaravathi River Ghat,10.9600,78.0820,Karur
Karur Silk Weaving Center,10.9805,78.1030,Karur
Bed Sheet Manufacturing Units,10.9810,78.1035,Karur
Karur Export Market,10.9815,78.1040,Karur
Jayankondam Market,11.2167,79.3667,Karur
Kulithalai Market Street,11.0000,78.4000,Karur
Hotel Annalakshmi,10.9820,78.1045,Karur
Grand Sweets Karur,10.9825,78.1050,Karur
Sree Annapoorna Karur,10.9830,78.1055,Karur
Junior Kuppanna Karur,10.9835,78.1060,Karur
Cafe Coffee Day Karur,10.9840,78.1065,Karur
Karur Railway Heritage Station,10.9577,78.0809,Karur
Mayanur Bird Watching,10.9056,78.1664,Karur
Amaravathi Sunset Point,10.9600,78.0820,Karur
Kodumudi Chola Heritage Sites,11.0833,77.8833,Karur
Rural Village Pottery Making,10.9845,78.1070,Karur
Karur Nature Photography Tour,10.9850,78.1075,Karur
Manmangalam Temple Complex,10.9855,78.1080,Karur
Promenade Beach (Rock Beach),11.9325,79.8358,Pondicherry
Paradise Beach (Plage Paradiso),12.0200,79.8500,Pondicherry
Auroville Beach,12.0100,79.8300,Pondicherry
Serenity Beach,12.0120,79.8350,Pondicherry
Quiet Beach (Repos Beach),12.0050,79.8280,Pondicherry
Sri Aurobindo Ashram,11.9339,79.8308,Pondicherry
Auroville & Matrimandir,12.0070,79.8106,Pondicherry
Manakula Vinayagar Temple,11.9350,79.8320,Pondicherry
Sri Varadaraja Perumal Temple,11.9360,79.8330,Pondicherry
Vedapureeswarar Temple,11.9370,79.8340,Pondicherry
Basilica of the Sacred Heart of Jesus,11.9380,79.8350,Pondicherry
Immaculate Conception Cathedral,11.9300,79.8290,Pondicherry
Notre Dame des Anges Church,11.9310,79.8295,Pondicherry
Church of Our Lady of Angels,11.9320,79.8300,Pondicherry
French Quarter (White Town),11.9350,79.8320,Pondicherry
French War Memorial,11.9325,79.8358,Pondicherry
Aayi Mandapam,11.9330,79.8305,Pondicherry
Old Lighthouse,11.9340,79.8310,Pondicherry
Pondicherry Museum,11.9355,79.8325,Pondicherry
Jawahar Toy Museum,11.9365,79.8335,Pondicherry
Cluny Embroidery Centre,11.9375,79.8345,Pondicherry
Botanical Garden,11.9385,79.8355,Pondicherry
Bharathi Park (Government Park),11.9328,79.8306,Pondicherry
Ousteri Lake & National Park,11.9550,79.7450,Pondicherry
Chunnambar Backwater,11.9800,79.8600,Pondicherry
Arikamedu Archaeological Site,11.9100,79.8400,Pondicherry
Dupleix Park,11.9315,79.8292,Pondicherry
Caf des Arts,11.9345,79.8315,Pondicherry
Baker Street,11.9352,79.8322,Pondicherry
Le Caf,11.9325,79.8358,Pondicherry
Villa Shanti,11.9348,79.8318,Pondicherry
Surguru Restaurant,11.9362,79.8332,Pondicherry
Bread & Baguette,11.9372,79.8342,Pondicherry
Kasha Ki Aasha,11.9382,79.8352,Pondicherry
Goubert Market (Grand Bazaar),11.9335,79.8310,Pondicherry
Mission Street Shopping,11.9342,79.8312,Pondicherry
Nehru Street Market,11.9358,79.8328,Pondicherry
Scuba Diving at Temple Reef,11.9200,79.8450,Pondicherry
Surfing at Serenity Beach,12.0120,79.8350,Pondicherry
Kayaking at Chunnambar,11.9800,79.8600,Pondicherry
Cycling Tour of French Quarter,11.9350,79.8320,Pondicherry
Auroville Bakery & Cafeteria,12.0075,79.8110,Pondicherry
French Institute (Alliance Franaise),11.9368,79.8338,Pondicherry
Bharati Museum & Gallery,11.9378,79.8348,Pondicherry
Gandhi Statue & Memorial,11.9325,79.8358,Pondicherry
Paradise Island (Chunnambar),11.9800,79.8600,Pondicherry
House of Hidesign,11.9388,79.8358,Pondicherry
Seagulls Restaurant & Bar,11.9398,79.8368,Pondicherry
Pondy Marina,11.9325,79.8358,Pondicherry
Pondicherry Heritage Walk,11.9350,79.8320,Pondicherry
Karaikal Beach,10.9167,79.8333,Pondicherry
Veerampattinam Beach,11.8500,79.8200,Pondicherry
Mahe Beach,11.7000,75.5333,Pondicherry
Yanam Beach,16.7333,82.2167,Pondicherry
Sri Gokilambal Thirukameswar Temple,11.9400,79.8370,Pondicherry
Kamakshi Amman Temple,11.9410,79.8380,Pondicherry
Navagraha Temple,11.9420,79.8390,Pondicherry
Sivananda Swami Temple,11.9430,79.8400,Pondicherry
Irumbai Shiva Temple,11.9440,79.8410,Pondicherry
Panchavati Anjaneya Temple,11.9450,79.8420,Pondicherry
St. Anthony's Church,11.9460,79.8430,Pondicherry
Holy Rosary Church,11.9470,79.8440,Pondicherry
St. James Church,11.9480,79.8450,Pondicherry
Kareikalamman Temple Karaikal,10.9167,79.8333,Pondicherry
Saneeswaran Temple,11.9490,79.8460,Pondicherry
Auroville Visitors Center,12.0050,79.8090,Pondicherry
Savitri Bhavan Auroville,12.0080,79.8110,Pondicherry
Sadhana Forest,12.0200,79.8200,Pondicherry
Quiet Healing Center Auroville,12.0090,79.8120,Pondicherry
Unity Pavilion Auroville,12.0015,79.8060,Pondicherry
Arulmigu Kailasanathar Temple,11.9500,79.8470,Pondicherry
Villianur Thirukameshwara Temple,11.9300,79.7500,Pondicherry
Sri Lakshmi Narasimha Perumal Temple,11.9510,79.8480,Pondicherry
Varadaraja Perumal Temple Villianur,11.9300,79.7500,Pondicherry
Pondicherry Port,11.9250,79.8350,Pondicherry
Seagull Bridge Pondicherry,11.9320,79.8360,Pondicherry
Rock Beach Sunrise Point,11.9325,79.8358,Pondicherry
Pondicherry Art Gallery,11.9520,79.8490,Pondicherry
Focus Art Gallery,11.9530,79.8500,Pondicherry
Kalki Koechlin Gallery,11.9540,79.8510,Pondicherry
Romain Rolland Library,11.9343,79.8313,Pondicherry
Aranya Naturals & Textiles Auroville,12.0085,79.8115,Pondicherry
Auroville Boutiques,12.0070,79.8106,Pondicherry
Casablanca,11.9346,79.8316,Pondicherry
Kalki Store,11.9353,79.8323,Pondicherry
Seagulls Boutique,11.9363,79.8333,Pondicherry
Coromandel Shopping Street,11.9373,79.8343,Pondicherry
La Villa Cafe,11.9383,79.8353,Pondicherry
Rendezvous Restaurant,11.9393,79.8363,Pondicherry
Satsanga,11.9349,79.8319,Pondicherry
Tanto Pizzeria Pondicherry,11.9359,79.8329,Pondicherry
Solar Kitchen Auroville,12.0072,79.8108,Pondicherry
Naturellement Garden Cafe,12.0088,79.8118,Pondicherry
Well Cafe Pondy,11.9369,79.8339,Pondicherry
Pondy Ocean Park,11.9550,79.8520,Pondicherry
Stand Up Paddleboarding,11.9325,79.8358,Pondicherry
Paintball at Auroville,12.0100,79.8150,Pondicherry
Yoga at Yoganjali Natyalayam,11.9379,79.8349,Pondicherry
Night Market White Town,11.9350,79.8320,Pondicherry
Tamil Heritage Centre,11.9389,79.8359,Pondicherry
Meenakshi Amman Temple,9.9195,78.1193,Madurai
Thiruparankundram Murugan Temple,9.8700,78.0700,Madurai
Alagar Kovil (Kallazhagar Temple),10.0500,78.1500,Madurai
Koodal Azhagar Temple,9.9250,78.1200,Madurai
Pazhamudhir Solai (Murugan Temple),10.1000,78.1200,Madurai
Thirumohor Kalamega Perumal Temple,9.9300,78.1250,Madurai
Sri Soundararajaperumal Temple,9.9350,78.1300,Madurai
Vandiyur Mariamman Temple,9.9000,78.1400,Madurai
Thirumalai Nayakkar Mahal (Palace),9.9190,78.1210,Madurai
Thousand Pillar Hall (Aayiram Kaal Mandapam),9.9195,78.1193,Madurai
Pudhu Mandapam (Shopping Hall),9.9200,78.1195,Madurai
St. Mary's Cathedral Church,9.9240,78.1180,Madurai
Kazimar Big Mosque,9.9180,78.1160,Madurai
Maqbara Mosque,9.9170,78.1150,Madurai
Gandhi Memorial Museum,9.9100,78.1250,Madurai
Government Museum Madurai,9.9280,78.1220,Madurai
Vaigai Dam,9.8667,77.5333,Madurai
Samanar Hills,9.8500,78.0500,Madurai
Kutladampatti Falls,9.7500,77.8000,Madurai
Meghamalai Wildlife Sanctuary,9.6775,77.3997,Madurai
Vandiyur Mariamman Teppakulam,9.9000,78.1400,Madurai
Vaigai River View,9.9150,78.1100,Madurai
Athisayam Amusement Park,9.9500,78.1600,Madurai
Eco Park Madurai,9.9400,78.1500,Madurai
Meenakshi Temple Market Area,9.9200,78.1190,Madurai
Town Hall Market,9.9260,78.1230,Madurai
East Gate Street Shopping,9.9210,78.1200,Madurai
Vilakkuthoon Market,9.9220,78.1210,Madurai
Murugan Idli Shop,9.9230,78.1215,Madurai
Kumar Mess,9.9245,78.1225,Madurai
Sree Sabarees,9.9255,78.1235,Madurai
Amsavalli Bhavan,9.9265,78.1240,Madurai
Konar Kadai (Mutton Stall),9.9275,78.1245,Madurai
Heritage Madurai Restaurant,9.9285,78.1250,Madurai
Meenakshi Temple Evening Ceremony,9.9195,78.1193,Madurai
Thirumalai Nayak Palace Light & Sound Show,9.9190,78.1210,Madurai
Alagar Hills Trekking,10.0500,78.1500,Madurai
Keelakuyilkudi Jain Caves,9.8600,78.0600,Madurai
Ancient Inscriptions at Samanar Hills,9.8500,78.0500,Madurai
Rajaji Park,9.9295,78.1255,Madurai
Tamukkam Ground,9.9305,78.1260,Madurai
Gopuram View from Temple Terrace,9.9195,78.1193,Madurai
Vaigai Dam Sunset Point,9.8667,77.5333,Madurai
Madurai Silk Saree Weaving Center,9.9315,78.1265,Madurai
Handloom Co-operative Society,9.9325,78.1270,Madurai
Madurai Flower Market,9.9335,78.1275,Madurai
Banana Market Madurai,9.9345,78.1280,Madurai
Madurai Heritage Walk,9.9200,78.1190,Madurai
Village Tourism near Madurai,9.9355,78.1285,Madurai
Arulmigu Sri Subramania Swamy Temple Tirupparankundram,9.8700,78.0700,Madurai
Arulmigu Koodal Sangam Temple,9.9250,78.1200,Madurai
Arulmigu Vilakku Vinayagar Temple,9.9365,78.1290,Madurai
Arulmigu Solaimalai Murugan Temple,10.1000,78.1200,Madurai
Sri Kallazhagar Perumal Temple,10.0500,78.1500,Madurai
Arulmigu Periyanachchiyamman Temple,9.9375,78.1295,Madurai
Arulmigu Ayya Swamy Temple,9.9385,78.1300,Madurai
Sri Vaithyanatha Swamy Temple,9.9395,78.1305,Madurai
Nagamalai Vinayagar Temple,9.9405,78.1310,Madurai
Arulmigu Kurangani Andavar Temple,9.9415,78.1315,Madurai
CSI Cathedral Church,9.9425,78.1320,Madurai
Fatima Church,9.9435,78.1325,Madurai
Sacred Heart Church Madurai,9.9445,78.1330,Madurai
St. George Church,9.9455,78.1335,Madurai
Tipu Sultan Palace,9.9465,78.1340,Madurai
Keezhadi Museum,9.8833,78.3167,Madurai
Athisayam Water Theme Park,9.9500,78.1600,Madurai
Yanai Malai (Elephant Hill),9.9475,78.1345,Madurai
Nagamalai (Nagamalai Hill),9.9405,78.1310,Madurai
Yanaimalai Murugan Temple,9.9475,78.1345,Madurai
Kumbakkarai Falls,9.7000,77.3000,Madurai
Manjalar Dam,9.7200,77.3800,Madurai
Sothupparai Dam,9.8500,77.4500,Madurai
Periyar River View,9.9150,78.1100,Madurai
Cholavandan Waterfalls,9.8000,77.9000,Madurai
Madurai Children's Park,9.9485,78.1350,Madurai
Nehru Park Madurai,9.9495,78.1355,Madurai
Anna Nagar Park,9.9505,78.1360,Madurai
Race Course Park,9.9515,78.1365,Madurai
Madurai Corporation Park,9.9525,78.1370,Madurai
Keezhadi Archaeological Site,9.8833,78.3167,Madurai
Azhagar Hills Trekking,10.0500,78.1500,Madurai
Madurai Art Gallery,9.9535,78.1375,Madurai
Puthu Mandapam Shopping,9.9200,78.1195,Madurai
North Chitrai Street Shopping,9.9545,78.1380,Madurai
Avani Moola Street Market,9.9555,78.1385,Madurai
Madurai Handicrafts Market,9.9565,78.1390,Madurai
Madurai Brassware Shopping,9.9575,78.1395,Madurai
Madurai Jigarthanda Stall,9.9585,78.1400,Madurai
Burmese Atho Street Food,9.9595,78.1405,Madurai
Hotel Sree Sabarees,9.9255,78.1235,Madurai
Arya Bhavan Restaurant,9.9605,78.1410,Madurai
Hotel Surya,9.9615,78.1415,Madurai
Junior Kuppanna Madurai,9.9625,78.1420,Madurai
Madurai Cycling Tour,9.9200,78.1190,Madurai
Vaigai River Bank Walk,9.9150,78.1100,Madurai
Madurai Photography Tour,9.9200,78.1190,Madurai
Meenakshi Temple Morning Ritual,9.9195,78.1193,Madurai
Madurai Street Food Tour,9.9200,78.1190,Madurai
Tamil Heritage Museum,9.9635,78.1425,Madurai
Main Falls (Peraruvi) Courtallam,8.9319,77.2692,Thenkasi
Five Falls (Aintharuvi) Courtallam,8.9350,77.2700,Thenkasi
Old Courtallam Falls,8.9300,77.2680,Thenkasi
Shenbagadevi Falls,8.9280,77.2660,Thenkasi
Small Falls (Chitraruvi),8.9360,77.2710,Thenkasi
Tiger Falls (Puliyaruvi),8.9250,77.2650,Thenkasi
Honey Falls (Thenaruvi),8.9200,77.2600,Thenkasi
Agasthiyar Falls,8.9100,77.2500,Thenkasi
Manimuthar Waterfalls,8.9000,77.2400,Thenkasi
Kasi Viswanathar Temple Tenkasi,8.9590,77.3129,Thenkasi
Thirukutralanathar Temple Courtallam,8.9319,77.2692,Thenkasi
Thirumalai Kovil (Panpoli),8.9500,77.3000,Thenkasi
Sankaranarayana Swamy Temple,8.9600,77.3140,Thenkasi
Kulasekharanathar Temple,8.9610,77.3150,Thenkasi
Shenbagadevi Amman Temple,8.9280,77.2660,Thenkasi
Kannimaramman Temple,8.9620,77.3160,Thenkasi
Ayikudi Balasubramanya Temple,8.9700,77.3500,Thenkasi
Sivasailam Temple,8.9630,77.3170,Thenkasi
Chitra Sabai Temple,8.9640,77.3180,Thenkasi
Papanasam Dam,8.6690,77.2872,Thenkasi
Manimuthar Dam,8.9000,77.2400,Thenkasi
Gundaru Dam,8.9400,77.3200,Thenkasi
Karuppanadhi Dam,8.9300,77.3100,Thenkasi
Thirumalapuram Rock-Cut Cave Temples,8.9800,77.3600,Thenkasi
Siva Gangai Waterfalls & Temple,8.9150,77.2550,Thenkasi
Western Ghats Viewpoint,8.9100,77.2500,Thenkasi
Thoranamali Hills Trekking,8.9500,77.2800,Thenkasi
Mekkarai Amusement Park,8.9650,77.3190,Thenkasi
Eco Park Courtallam,8.9320,77.2695,Thenkasi
Sundarapandiyapuram Agraharam,8.9660,77.3200,Thenkasi
Anniyan Para (Film Location),8.9200,77.2600,Thenkasi
Mekkarai Village Tour,8.9670,77.3210,Thenkasi
Sambavar Vadakarai (Sunflower Fields),8.9680,77.3220,Thenkasi
Tenkasi Main Market,8.9590,77.3129,Thenkasi
Courtallam Market Area,8.9319,77.2692,Thenkasi
Herbal Products Market,8.9330,77.2700,Thenkasi
Courtallam Local Food Stalls,8.9325,77.2697,Thenkasi
Saravana Bhavan Tenkasi,8.9595,77.3135,Thenkasi
Hotel Aryaas Tenkasi,8.9600,77.3140,Thenkasi
Tenkasi Biryani Center,8.9605,77.3145,Thenkasi
Sri Krishna Sweets,8.9610,77.3150,Thenkasi
A2B Adyar Ananda Bhavan,8.9615,77.3155,Thenkasi
Agasthiyar Falls Trekking,8.9100,77.2500,Thenkasi
Forest Bathing at Courtallam,8.9319,77.2692,Thenkasi
Courtallam Valley View,8.9300,77.2680,Thenkasi
Papanasam Dam Sunset Point,8.6690,77.2872,Thenkasi
Chittar River Banks,8.9319,77.2692,Thenkasi
Tenkasi Heritage Walk,8.9590,77.3129,Thenkasi
Medicinal Plants Garden,8.9620,77.3160,Thenkasi
Courtallam Temple Pond,8.9319,77.2692,Thenkasi
Pazhaya Courtallam Falls,8.9300,77.2680,Thenkasi
Pazhathotta Falls,8.9270,77.2670,Thenkasi
Vana Theertham Falls,8.9290,77.2675,Thenkasi
Irupu Falls,8.9180,77.2580,Thenkasi
Aintharuvi Massage Centers,8.9350,77.2700,Thenkasi
Arulmigu Madaswamy Temple,8.9625,77.3165,Thenkasi
Chitra Sabhai Temple,8.9640,77.3180,Thenkasi
Sri Dhanvantari Temple Courtallam,8.9319,77.2692,Thenkasi
Thiruvengadam Temple,8.9630,77.3170,Thenkasi
Veerapandiyamman Temple,8.9635,77.3175,Thenkasi
Esakkiamman Temple,8.9645,77.3185,Thenkasi
Krishnapuram Venkatachalapathy Temple,8.9700,77.3300,Thenkasi
Arulmigu Nellaiyappar Temple,8.7167,77.4833,Thenkasi
Kurumpalanathur Temple,8.9655,77.3195,Thenkasi
Sri Siddheswari Peetham,8.9665,77.3205,Thenkasi
Anggalap Parameshwari Temple,8.9675,77.3215,Thenkasi
Kailasanathar Temple Tenkasi,8.9590,77.3129,Thenkasi
Sambavar River Temple,8.9680,77.3220,Thenkasi
Seevalaperi Pond,8.9685,77.3225,Thenkasi
Hanuman River Banks,8.9690,77.3230,Thenkasi
Chittar River Bathing Area,8.9319,77.2692,Thenkasi
Karupur Dam,8.9400,77.3200,Thenkasi
Servalar Dam,8.6700,77.2900,Thenkasi
Palaruvi Waterfalls (Kerala Border),8.9500,77.1000,Thenkasi
Western Ghats Forest Reserve,8.9100,77.2500,Thenkasi
Agasthiyamalai Hills,8.7000,77.2000,Thenkasi
Folk Arts Museum Courtallam,8.9325,77.2697,Thenkasi
Tribal Heritage Museum,8.9695,77.3235,Thenkasi
Courtallam Herbal Garden,8.9330,77.2700,Thenkasi
Mekkarai Amusement Centre,8.9650,77.3190,Thenkasi
Ambasamudram Town,8.7167,77.4500,Thenkasi
Tenkasi Clock Tower,8.9590,77.3129,Thenkasi
Courtallam Falls Park,8.9319,77.2692,Thenkasi
Shanmuganallur Village Tourism,8.9700,77.3240,Thenkasi
Thalaiyuthu Viewpoint,8.9200,77.2600,Thenkasi
Tenkasi Bus Stand Market,8.9590,77.3129,Thenkasi
Courtallam Spices Market,8.9335,77.2705,Thenkasi
Traditional Oil Market,8.9340,77.2710,Thenkasi
Ayurvedic Products Shopping,8.9345,77.2715,Thenkasi
Courtallam Honey Market,8.9350,77.2720,Thenkasi
Hotel Anandha Bhavan Tenkasi,8.9600,77.3140,Thenkasi
Vasantha Bhavan Tenkasi,8.9605,77.3145,Thenkasi
Grand Sweets Tenkasi,8.9610,77.3150,Thenkasi
Courtallam Jigarthanda Stalls,8.9355,77.2725,Thenkasi
Local Mess Traditional Food,8.9360,77.2730,Thenkasi
Manimuthar Falls Trekking,8.9000,77.2400,Thenkasi
Papanasam Forest Trekking,8.6690,77.2872,Thenkasi
Courtallam Nature Photography,8.9319,77.2692,Thenkasi
Tenkasi Railway Station Heritage,8.9590,77.3129,Thenkasi
Courtallam Film Shooting Locations Tour,8.9319,77.2692,Thenkasi
Brihadeeswarar Temple (Big Temple),10.7828,79.1318,Thanjavur
Gangaikonda Cholapuram Temple,11.2000,79.4500,Thanjavur
Airavatesvara Temple Darasuram,10.9833,79.3833,Thanjavur
Punnainallur Mariamman Temple,10.8000,79.1200,Thanjavur
Thanjai Mamani Koil,10.7850,79.1350,Thanjavur
Swamimalai Murugan Temple,10.9500,79.3500,Thanjavur
Thiruvaiyaru Panchanatheeswarar Temple,10.8833,79.1000,Thanjavur
Kumbakonam Temples Circuit,10.9621,79.3912,Thanjavur
Thirubuvanam Kampaheswarar Temple,10.9200,79.3000,Thanjavur
Nageswaraswamy Temple Kumbakonam,10.9621,79.3912,Thanjavur
Thanjavur Maratha Palace,10.7870,79.1370,Thanjavur
Saraswathi Mahal Library,10.7870,79.1370,Thanjavur
Sangeetha Mahal,10.7870,79.1370,Thanjavur
Durbar Hall (Palace Complex),10.7870,79.1370,Thanjavur
Bell Tower (Palace),10.7870,79.1370,Thanjavur
Raja Rajan Chola Art Gallery,10.7870,79.1370,Thanjavur
Royal Palace Museum,10.7870,79.1370,Thanjavur
District Museum Thanjavur,10.7880,79.1380,Thanjavur
Tanjore Painting Art Gallery,10.7890,79.1390,Thanjavur
Schwartz Church,10.7900,79.1400,Thanjavur
St. Peter & Paul Church,10.7910,79.1410,Thanjavur
Sivaganga Park,10.7920,79.1420,Thanjavur
Manora Fort & Garden,10.7930,79.1430,Thanjavur
Raja Serfoji Memorial Hall Garden,10.7870,79.1370,Thanjavur
Vijayanagar Fort,10.7940,79.1440,Thanjavur
Danish Fort Tranquebar,11.0333,79.8500,Thanjavur
Zion Church Tranquebar,11.0333,79.8500,Thanjavur
Grand Anicut Canal Street Market,10.7950,79.1450,Thanjavur
Tanjore Painting Workshops,10.7960,79.1460,Thanjavur
Bronze Casting Centers Swamimalai,10.9500,79.3500,Thanjavur
Thanjavur Silk Saree Shops,10.7970,79.1470,Thanjavur
Sathars Restaurant,10.7980,79.1480,Thanjavur
Hotel Gnanam,10.7990,79.1490,Thanjavur
Saravana Bhavan Thanjavur,10.8000,79.1500,Thanjavur
A2B Adyar Ananda Bhavan,10.8010,79.1510,Thanjavur
Sri Krishna Sweets,10.8020,79.1520,Thanjavur
Vasantha Bhavan Thanjavur,10.8030,79.1530,Thanjavur
Thanjavur Classical Music Festival,10.7852,79.1390,Thanjavur
Traditional Bharatanatyam Performance,10.7870,79.1370,Thanjavur
Tanjore Painting Workshop,10.7960,79.1460,Thanjavur
Grand Anicut (Kallanai Dam),10.9583,79.0194,Thanjavur
Cauvery River Banks,10.7850,79.1350,Thanjavur
Pichavaram Mangrove Forest,11.4500,79.7800,Thanjavur
Point Calimere Wildlife Sanctuary,10.2833,79.8500,Thanjavur
Tranquebar Beach,11.0333,79.8500,Thanjavur
Rajali Birds Park,10.8040,79.1540,Thanjavur
Thanjavur Heritage Walk,10.7852,79.1390,Thanjavur
Rice Bowl of Tamil Nadu Tour,10.7852,79.1390,Thanjavur
Nandi Statue at Big Temple,10.7828,79.1318,Thanjavur
Temple Corridor Paintings,10.7828,79.1318,Thanjavur
Vaitheeswaran Koil Temple,11.0833,79.4667,Thanjavur
Alangudi Guru Temple,10.3667,79.0500,Thanjavur
Ramaswamy Temple Kumbakonam,10.9621,79.3912,Thanjavur
Uppiliappan Temple,10.8833,79.3333,Thanjavur
Thirukandiyur Temple,10.8500,79.3000,Thanjavur
Sarangapani Temple Kumbakonam,10.9621,79.3912,Thanjavur
Chakrapani Temple Kumbakonam,10.9621,79.3912,Thanjavur
Mahamaham Tank Kumbakonam,10.9621,79.3912,Thanjavur
Kasi Viswanathar Temple Kumbakonam,10.9621,79.3912,Thanjavur
Ramalingeswarar Temple Papanasam,11.0167,79.2667,Thanjavur
Thirumangalakudi Temple,10.8167,79.2833,Thanjavur
Thiruvidaimarudur Temple,11.0167,79.3833,Thanjavur
Arulmigu Ayyan Thiruvalluvar Temple,10.8050,79.1550,Thanjavur
Swami Malai Bronze Workshop,10.9500,79.3500,Thanjavur
Thanjavur Veena Making Workshop,10.8060,79.1560,Thanjavur
Kumbakonam Coffee Shops,10.9621,79.3912,Thanjavur
Thirumayam Fort,10.1667,78.9667,Thanjavur
Rajarajan Mani Mandapam,10.7870,79.1370,Thanjavur
Tamil University Museum,10.8070,79.1570,Thanjavur
Nayak Durbar Hall Art Museum,10.7870,79.1370,Thanjavur
Chola Bronze Collection,10.7870,79.1370,Thanjavur
Thanjavur Fort Walls,10.7852,79.1390,Thanjavur
St. Mary's Church Tranquebar,11.0333,79.8500,Thanjavur
Danish Museum Tranquebar,11.0333,79.8500,Thanjavur
Tranquebar Gate,11.0333,79.8500,Thanjavur
Goldsmith Street Tranquebar,11.0333,79.8500,Thanjavur
Thiruvarur Thyagaraja Temple,10.7667,79.6333,Thanjavur
Mayiladuthurai Temple,11.1000,79.6500,Thanjavur
Point Calimere Lighthouse,10.2833,79.8500,Thanjavur
Kodikkarai Beach,10.2833,79.8500,Thanjavur
Vedaranyam Salt Pans,10.3667,79.8500,Thanjavur
Vedaranyam Salt Satyagraha Memorial,10.3667,79.8500,Thanjavur
Karaikal Beach,10.9167,79.8333,Thanjavur
Poompuhar Beach,11.1500,79.8500,Thanjavur
Poompuhar Archaeological Museum,11.1500,79.8500,Thanjavur
Silappathikaram Art Gallery,11.1500,79.8500,Thanjavur
Kumbakonam Market,10.9621,79.3912,Thanjavur
Thanjavur Silk Market,10.8080,79.1580,Thanjavur
Traditional Veena Shops,10.8090,79.1590,Thanjavur
Hotel Sathars Thanjavur,10.7980,79.1480,Thanjavur
Thevar's Restaurant,10.8100,79.1600,Thanjavur
Grand Sweets Thanjavur,10.8110,79.1610,Thanjavur
Junior Kuppanna Thanjavur,10.8120,79.1620,Thanjavur
Kumbakonam Filter Coffee Shops,10.9621,79.3912,Thanjavur
Thanjavur Thalappakatti Biryani,10.8130,79.1630,Thanjavur
Cauvery Delta Village Tour,10.7852,79.1390,Thanjavur
Thanjavur Musical Instrument Market,10.8140,79.1640,Thanjavur
Thiruvaiyaru Music Festival Ground,10.8833,79.1000,Thanjavur
Thanjavur Photography Tour,10.7852,79.1390,Thanjavur
Traditional Dance School Visit,10.8150,79.1650,Thanjavur
Nellaiappar Temple,8.7291,77.6918,Tirunelveli
Krishnapuram Venkatachalapathy Temple,8.7100,77.6500,Tirunelveli
Sankaranarayana Temple Sankara Nagar,8.7300,77.6950,Tirunelveli
Arulmigu Krishnapuram Anchaneyar Temple,8.7100,77.6500,Tirunelveli
Papavinasam Temple,8.6700,77.2900,Tirunelveli
Athankarai Pallivasal,8.7200,77.6800,Tirunelveli
Suyambulingaswamy Temple Sivagiri,9.3446,77.4291,Tirunelveli
Nanguneri Sree Vaishnava Temple,8.5000,77.6667,Tirunelveli
Thirukkurungudi Nambi Temple,8.6667,77.4000,Tirunelveli
Sri Kumaraswamy Temple Kutralam,8.9319,77.2692,Tirunelveli
Agasthiyar Falls (Papanasam Falls),8.6690,77.2872,Tirunelveli
Manimuthar Waterfalls,8.9000,77.2400,Tirunelveli
Banatheertham Falls,8.6700,77.2900,Tirunelveli
Karaiyar Falls,8.6690,77.2872,Tirunelveli
Papanasam Dam (Karaiyar Dam),8.6690,77.2872,Tirunelveli
Manimuthar Dam,8.9000,77.2400,Tirunelveli
Mekkara Dam,8.7000,77.3000,Tirunelveli
Servalar Dam,8.6700,77.2900,Tirunelveli
Kalakkad Mundanthurai Tiger Reserve,8.5000,77.3000,Tirunelveli
Kalakkad Wildlife Sanctuary,8.5000,77.3000,Tirunelveli
Kattabomman Memorial Fort,9.1667,77.7667,Tirunelveli
Panchalankurichi Fort,9.1667,77.7667,Tirunelveli
Kazhugumalai Jain Temple & Rock-Cut Cave,9.1000,77.7000,Tirunelveli
Kappal Matha Church (Ship Church),8.7000,77.6000,Tirunelveli
St. Joseph's Church Palayamkottai,8.7300,77.7200,Tirunelveli
CSI Zion Church Palayamkottai,8.7300,77.7200,Tirunelveli
District Science Centre,8.7350,77.6970,Tirunelveli
Thamirabarani River Bank,8.7291,77.6918,Tirunelveli
Eco Park Tirunelveli,8.7360,77.6980,Tirunelveli
Tirunelveli Halwa Shopping,8.7370,77.6990,Tirunelveli
Tirunelveli Main Market,8.7380,77.7000,Tirunelveli
Palayamkottai Market,8.7300,77.7200,Tirunelveli
Iruttukadai Halwa Shop,8.7291,77.6918,Tirunelveli
Sri Murugan Mess,8.7390,77.7010,Tirunelveli
Saravana Bhavan Tirunelveli,8.7400,77.7020,Tirunelveli
Hotel Aryaas Tirunelveli,8.7410,77.7030,Tirunelveli
A2B Adyar Ananda Bhavan,8.7420,77.7040,Tirunelveli
Sri Krishna Sweets,8.7430,77.7050,Tirunelveli
Agasthiyar Hills Trekking,8.7000,77.2000,Tirunelveli
Western Ghats Bird Watching,8.6690,77.2872,Tirunelveli
Papanasam Viewpoint,8.6690,77.2872,Tirunelveli
Manimuthar Dam Sunset Point,8.9000,77.2400,Tirunelveli
Singampatti Zamin Palace,9.0000,77.5000,Tirunelveli
Tirunelveli Katcheri Building,8.7291,77.6918,Tirunelveli
Kothaiyar Sanatorium,8.6000,77.3500,Tirunelveli
Sorimuthu Ayyanar Temple,8.7440,77.7060,Tirunelveli
Tirunelveli Heritage Walk,8.7291,77.6918,Tirunelveli
Thamirabarani River Boat Ride,8.7291,77.6918,Tirunelveli
Musical Pillars of Nellaiappar Temple,8.7291,77.6918,Tirunelveli
Tirunelveli Sangam Literature Sites,8.7291,77.6918,Tirunelveli
Arulmigu Swamithope Pathi,8.3000,77.4500,Tirunelveli
Vanchimaniyachi Amman Temple,8.7450,77.7070,Tirunelveli
Kazhugumalai Murugan Temple,9.1000,77.7000,Tirunelveli
Thiruchendur Murugan Temple,8.4952,78.1206,Tirunelveli
Thisayanvilai Subramaniya Swamy Temple,8.4000,77.4000,Tirunelveli
Arulmigu Azhvar Thirunagari Temple,8.5833,77.7833,Tirunelveli
Melakadambur Ambal Temple,8.7460,77.7080,Tirunelveli
Valliyoor Subramanya Swamy Temple,8.3833,77.6167,Tirunelveli
Sri Vaikuntanathan Temple Srivaikundam,8.6167,77.9167,Tirunelveli
Arulmigu Kasi Viswanathar Temple,8.7291,77.6918,Tirunelveli
Shenbagathope Falls,8.6700,77.2900,Tirunelveli
Karaiyar Waterfalls,8.6690,77.2872,Tirunelveli
Panimootai Falls,8.6500,77.2700,Tirunelveli
Manjolai Tea Estates,8.5500,77.3500,Tirunelveli
Upper Kodaiyar Hill Station,8.6000,77.3500,Tirunelveli
Koonthakulam Bird Sanctuary,8.5333,77.7167,Tirunelveli
Ariakulam Bird Sanctuary,8.5500,77.7500,Tirunelveli
Mundanthurai Wildlife Sanctuary,8.5000,77.3000,Tirunelveli
Karaiyar Dam Park,8.6690,77.2872,Tirunelveli
Gadana River Viewpoint,8.7470,77.7090,Tirunelveli
Manjolai Viewpoint,8.5500,77.3500,Tirunelveli
Agasthyakoodam Peak,8.7000,77.2000,Tirunelveli
Kodaiyar Forest,8.6000,77.3500,Tirunelveli
Tirunelveli Clock Tower,8.7291,77.6918,Tirunelveli
Kalugumalai Rock Cut Sculptures,9.1000,77.7000,Tirunelveli
Vattakottai Fort,8.1333,77.3167,Tirunelveli
Kuttikulam Village Pottery,8.7480,77.7100,Tirunelveli
Kazhugumalai Archaeological Museum,9.1000,77.7000,Tirunelveli
Vanatheerthamala Temple,8.6700,77.2900,Tirunelveli
St. Xavier's Church Palayamkottai,8.7300,77.7200,Tirunelveli
Sacred Heart Church Tirunelveli,8.7291,77.6918,Tirunelveli
Tirunelveli Government Museum,8.7291,77.6918,Tirunelveli
Rajaji Park Tirunelveli,8.7490,77.7110,Tirunelveli
VOC Park,8.7500,77.7120,Tirunelveli
Tirunelveli Junction Market,8.7291,77.6918,Tirunelveli
Gandhi Market Palayamkottai,8.7300,77.7200,Tirunelveli
Traditional Cotton Saree Market,8.7510,77.7130,Tirunelveli
Tirunelveli Bell Brass Shopping,8.7520,77.7140,Tirunelveli
Hotel New Gnanam,8.7530,77.7150,Tirunelveli
Vasantha Bhavan Tirunelveli,8.7400,77.7020,Tirunelveli
Grand Sweets Tirunelveli,8.7540,77.7160,Tirunelveli
Junior Kuppanna Tirunelveli,8.7550,77.7170,Tirunelveli
Tirunelveli Filter Coffee Shops,8.7291,77.6918,Tirunelveli
Kalakkad Trekking,8.5000,77.3000,Tirunelveli
Thamirabarani River Rafting,8.7291,77.6918,Tirunelveli
Papanasam Forest Trekking,8.6690,77.2872,Tirunelveli
Tirunelveli Cycle Tour,8.7291,77.6918,Tirunelveli
Thamirabarani Bridge Sunset View,8.7291,77.6918,Tirunelveli
Suchindram Musical Pillar Temple,8.1500,77.4667,Tirunelveli
Tirunelveli Traditional Veena Workshop,8.7560,77.7180,Tirunelveli
Devanathaswamy Temple (Thiruvanthipuram),11.4500,79.7500,Cuddalore
Padaleeswarar Temple,11.7447,79.7680,Cuddalore
Nataraja Temple Chidambaram,11.3994,79.6950,Cuddalore
Bhuvaraha Swamy Temple,11.3900,79.6900,Cuddalore
Sri Singirikudi Narasimha Temple,11.4000,79.7000,Cuddalore
Veeratteswarar Temple,11.7450,79.7685,Cuddalore
Thirupathiripuliyur Perumal Temple,11.7460,79.7690,Cuddalore
Pinnai Vazhi Amman Temple Samiyarpettai,11.7500,79.8000,Cuddalore
Annamalai Temple (Tiruvannamalai nearby),12.2300,79.0700,Cuddalore
Vridhachalam Temple,11.5167,79.3167,Cuddalore
Silver Beach,11.7470,79.7695,Cuddalore
Samiyarpettai Beach,11.7500,79.8000,Cuddalore
Devanampattinam Beach,11.5000,79.8500,Cuddalore
Parangipettai Beach (Porto Novo),11.4833,79.8500,Cuddalore
Pichavaram Mangrove Forest,11.4319,79.7810,Cuddalore
Pichavaram Boat Ride (Row Boat),11.4319,79.7810,Cuddalore
Pichavaram Kayaking,11.4319,79.7810,Cuddalore
MGR Thittu (Island near Pichavaram),11.4400,79.7900,Cuddalore
Fort St. David,11.7447,79.7680,Cuddalore
Bhuvanagiri Fort,11.4500,79.7300,Cuddalore
Danish Settlement Tranquebar,11.0333,79.8500,Cuddalore
Veeranam Lake,11.4500,79.5000,Cuddalore
Perumal Lake (Bird Watching),11.5000,79.5500,Cuddalore
Cuddalore Government Museum,11.7480,79.7700,Cuddalore
Annamalai University Herbarium,11.4000,79.7000,Cuddalore
CAS Marine Biology Aquarium,11.4319,79.7810,Cuddalore
Our Lady of Lourdes Church Cuddalore,11.7490,79.7710,Cuddalore
St. Joseph's Church Porto Novo,11.4833,79.8500,Cuddalore
Children's Park Cuddalore,11.7500,79.7720,Cuddalore
Eco Park Silver Beach,11.7470,79.7695,Cuddalore
Cuddalore Main Market,11.7510,79.7730,Cuddalore
Chidambaram Market,11.3994,79.6950,Cuddalore
Handicraft Shops Pichavaram,11.4319,79.7810,Cuddalore
Seafood Stalls Silver Beach,11.7470,79.7695,Cuddalore
Saravana Bhavan Cuddalore,11.7520,79.7740,Cuddalore
Hotel Aryaas Cuddalore,11.7530,79.7750,Cuddalore
A2B Adyar Ananda Bhavan,11.7540,79.7760,Cuddalore
Sri Krishna Sweets,11.7550,79.7770,Cuddalore
Local Fish Market Restaurants,11.7560,79.7780,Cuddalore
Water Sports at Silver Beach,11.7470,79.7695,Cuddalore
Fishing Village Tour,11.7500,79.8000,Cuddalore
Silver Beach Lighthouse View,11.7470,79.7695,Cuddalore
Gadilam River Viewpoint,11.7570,79.7790,Cuddalore
Chidambaram Dance Festival Venue,11.3994,79.6950,Cuddalore
Traditional Wood Carving Villages,11.7580,79.7800,Cuddalore
Neyveli Lignite Mines (Viewpoint),11.6000,79.4833,Cuddalore
Cuddalore Heritage Walk,11.7447,79.7680,Cuddalore
Vellar Estuary Bird Watching,11.4500,79.8000,Cuddalore
Cuddalore Old Town Walking Tour,11.7447,79.7680,Cuddalore
Sunset Point at Parangipettai,11.4833,79.8500,Cuddalore
Thirukadaiyur Amirthakadeshwara Temple,11.0667,79.6833,Cuddalore
Vaitheeswaran Koil,11.0833,79.4667,Cuddalore
Tiruppaampuram Temple,11.3000,79.6000,Cuddalore
Thiruvennainallur Temple,11.4667,79.5833,Cuddalore
Kattumannarkoil Murugan Temple,11.2667,79.5167,Cuddalore
Sikkil Temple,11.3333,79.6500,Cuddalore
Bhringeeswarar Temple Thiruvengadu,11.0000,79.5333,Cuddalore
Thiruvanthipuram Devi Temple,11.4500,79.7500,Cuddalore
Arulmigu Pushpavaneswarar Temple,11.7590,79.7810,Cuddalore
Mayiladuthurai Mayuranathaswamy Temple,11.1000,79.6500,Cuddalore
Chidambaram Thillai Kali Temple,11.3994,79.6950,Cuddalore
Mangrove Walk Pichavaram,11.4319,79.7810,Cuddalore
Pichavaram Bird Watching,11.4319,79.7810,Cuddalore
Vellar Estuary,11.4500,79.8000,Cuddalore
Coleroon Estuary,11.4000,79.8000,Cuddalore
Thiruchopuram Beach,11.5500,79.8300,Cuddalore
Vadalur Beach,11.5333,79.7833,Cuddalore
Killai Backwater,11.4667,79.7667,Cuddalore
Kedilam River Banks,11.7600,79.7820,Cuddalore
Gadilam River Estuary,11.7500,79.8000,Cuddalore
Ratnagiri Fort Ruins,11.7610,79.7830,Cuddalore
Thiruppathiripuliyur Fort Ruins,11.7460,79.7690,Cuddalore
Portuguese Cemetery Cuddalore,11.7447,79.7680,Cuddalore
British Cemetery Cuddalore,11.7447,79.7680,Cuddalore
French War Memorial,11.7447,79.7680,Cuddalore
Zion Church Tranquebar (New Church),11.0333,79.8500,Cuddalore
Our Lady of Velankanni Church Virudhachalam,11.5167,79.3167,Cuddalore
St. James Church Cuddalore,11.7620,79.7840,Cuddalore
Sacred Heart Church Chidambaram,11.3994,79.6950,Cuddalore
JNCU Campus,11.4000,79.7000,Cuddalore
Annamalai University Botanical Garden,11.4000,79.7000,Cuddalore
Porto Novo Dutch Fort,11.4833,79.8500,Cuddalore
Silver Beach Fishing Village Tour,11.7470,79.7695,Cuddalore
Cuddalore Old Collector Bungalow,11.7447,79.7680,Cuddalore
Rajaji Park Cuddalore,11.7630,79.7850,Cuddalore
Nehru Park Cuddalore,11.7640,79.7860,Cuddalore
Chidambaram Market,11.3994,79.6950,Cuddalore
Virudhachalam Market,11.5167,79.3167,Cuddalore
Traditional Fishing Net Making Village,11.7650,79.7870,Cuddalore
Hotel Raj Durbar,11.7660,79.7880,Cuddalore
Vasantha Bhavan Cuddalore,11.7670,79.7890,Cuddalore
Grand Sweets Cuddalore,11.7680,79.7900,Cuddalore
Junior Kuppanna Cuddalore,11.7690,79.7910,Cuddalore
Chidambaram Traditional Meals,11.3994,79.6950,Cuddalore
Pichavaram Fishing Experience,11.4319,79.7810,Cuddalore
Silver Beach Horse Riding,11.7470,79.7695,Cuddalore
Cuddalore Cycling Tour,11.7447,79.7680,Cuddalore
Chidambaram Temple Festival Ground,11.3994,79.6950,Cuddalore
Cuddalore Photography Tour,11.7447,79.7680,Cuddalore
Salt Pans Devanampattinam,11.5000,79.8500,Cuddalore
Thyagaraja Temple Tiruvarur,10.7761,79.6335,Tiruvarur
Koothanur Maha Saraswathi Temple,10.8500,79.5500,Tiruvarur
Mannargudi Rajagopalaswamy Temple,10.6667,79.4500,Tiruvarur
Srivanchiyam Vanchinathaswamy Temple,10.7000,79.5000,Tiruvarur
Thiruveezhimalai Temple,10.6000,79.4000,Tiruvarur
Thirupampuram Seshapureeswarar Temple,10.7800,79.6400,Tiruvarur
Thirukkannamangai Temple,10.7500,79.6000,Tiruvarur
Tillaivilagam Temple,10.7900,79.6500,Tiruvarur
Tirumeichur Udhara Kaliyeswarar Temple,10.7200,79.5800,Tiruvarur
Enkan Subramanyaswamy Temple,10.8000,79.6200,Tiruvarur
Muthupet Mangrove Forest,10.4000,79.5000,Tiruvarur
Muthupet Lagoon Boat Ride,10.4000,79.5000,Tiruvarur
Vaduvur Bird Sanctuary,10.5500,79.5000,Tiruvarur
Muthupet Estuary Bird Watching,10.4000,79.5000,Tiruvarur
Muthupet Beach,10.3967,79.5039,Tiruvarur
Thiruthuraipoondi Beach,10.5500,79.6333,Tiruvarur
Tyagaraja Temple Museum,10.7761,79.6335,Tiruvarur
Carnatic Music Trinity Memorial,10.7761,79.6335,Tiruvarur
Ancient Musical Instruments Gallery,10.7761,79.6335,Tiruvarur
Aazhi Ther (Temple Chariot) Viewing,10.7761,79.6335,Tiruvarur
Thyagaraja Temple 1000 Pillar Hall,10.7761,79.6335,Tiruvarur
Mannargudi Temple Gopurams,10.6667,79.4500,Tiruvarur
Muthupet Fort Ruins,10.4000,79.5000,Tiruvarur
Ancient Chola Capital Sites,10.7727,79.6368,Tiruvarur
Muthupet Mosque (700 years old),10.4000,79.5000,Tiruvarur
St. Mary's Church Mannargudi,10.6667,79.4500,Tiruvarur
Rajaji Park Tiruvarur,10.7800,79.6400,Tiruvarur
Children's Park Mannargudi,10.6667,79.4500,Tiruvarur
Tiruvarur Main Market,10.7727,79.6368,Tiruvarur
Mannargudi Market,10.6667,79.4500,Tiruvarur
Handicraft Shops near Temples,10.7727,79.6368,Tiruvarur
Saravana Bhavan Tiruvarur,10.7727,79.6368,Tiruvarur
Hotel Aryaas Tiruvarur,10.7800,79.6400,Tiruvarur
A2B Adyar Ananda Bhavan,10.7810,79.6410,Tiruvarur
Sri Krishna Sweets,10.7820,79.6420,Tiruvarur
Local Mess (Traditional Food),10.7830,79.6430,Tiruvarur
Muthupet Seafood Stalls,10.4000,79.5000,Tiruvarur
Temple Chariot Festival (Seasonal),10.7761,79.6335,Tiruvarur
Carnatic Music Concert (Seasonal),10.7761,79.6335,Tiruvarur
Mannargudi Temple Tank,10.6667,79.4500,Tiruvarur
Thiruveezhimalai Lake,10.6000,79.4000,Tiruvarur
Muthupet Lagoon Sunset Point,10.4000,79.5000,Tiruvarur
Mannargudi Temple Tower View,10.6667,79.4500,Tiruvarur
Paddy Fields Tour (Rice Bowl),10.7727,79.6368,Tiruvarur
Traditional Farming Village Visit,10.7840,79.6440,Tiruvarur
Tiruvarur Heritage Walk,10.7727,79.6368,Tiruvarur
Temple Architecture Tour,10.7727,79.6368,Tiruvarur
Fishing Village Experience Muthupet,10.4000,79.5000,Tiruvarur
Wooden Walkway Muthupet (162m),10.4000,79.5000,Tiruvarur
Tiruvarur to Mannargudi Temple Circuit,10.7200,79.5400,Tiruvarur
Udayamarthandapuram Bird Sanctuary,10.6500,79.5500,Tiruvarur
Alangudi Guru Temple,10.3667,79.0500,Tiruvarur
Valangaiman Temple,10.7333,79.4167,Tiruvarur
Thirukkannamangai Nintra Narayana Temple,10.7500,79.6000,Tiruvarur
Arulmigu Agneeswarar Temple Thiruveezhimalai,10.6000,79.4000,Tiruvarur
Thirumandangudi Temple,10.6833,79.4833,Tiruvarur
Arulmigu Kayarohanaswamy Temple,10.7850,79.6450,Tiruvarur
Arulmigu Achaleeswarar Temple,10.7860,79.6460,Tiruvarur
Koodi Ganapathi Temple,10.7870,79.6470,Tiruvarur
Muthupet Dargah Mosque,10.4000,79.5000,Tiruvarur
Arulmigu Vaidyanathaswamy Temple,10.7880,79.6480,Tiruvarur
Neelamega Perumal Temple,10.7890,79.6490,Tiruvarur
Mangrove Forest Walkway,10.4000,79.5000,Tiruvarur
Muthupet Coastal Area,10.4000,79.5000,Tiruvarur
Kollikaadu Lake,10.7900,79.6500,Tiruvarur
Harichandrapuram Lake,10.7910,79.6510,Tiruvarur
Mannargudi Temple Car (Ther),10.6667,79.4500,Tiruvarur
Aazhi Ther Museum,10.7761,79.6335,Tiruvarur
Carnatic Music Art Gallery,10.7761,79.6335,Tiruvarur
Tyagaraja Aradhana Venue,10.7761,79.6335,Tiruvarur
Musical Instruments Exhibition Hall,10.7761,79.6335,Tiruvarur
Mannargudi Gopuram Architectural Marvels,10.6667,79.4500,Tiruvarur
Temple Tank Photography,10.7727,79.6368,Tiruvarur
St. Thomas Church Tiruvarur,10.7920,79.6520,Tiruvarur
Sacred Heart Church Mannargudi,10.6667,79.4500,Tiruvarur
Tiruvarur Government Museum,10.7727,79.6368,Tiruvarur
Raja Gopuram View,10.7761,79.6335,Tiruvarur
Panchamuga Vadyam Display,10.7761,79.6335,Tiruvarur
Pari Nadaswaram Gallery,10.7761,79.6335,Tiruvarur
Children's Play Area Mannargudi,10.6667,79.4500,Tiruvarur
Tiruvarur Bus Stand Market,10.7727,79.6368,Tiruvarur
Traditional Silk Market,10.7727,79.6368,Tiruvarur
Handicrafts near Koothanur,10.8500,79.5500,Tiruvarur
Brass Vessels Shopping,10.7727,79.6368,Tiruvarur
Vasantha Bhavan Tiruvarur,10.7930,79.6530,Tiruvarur
Grand Sweets Tiruvarur,10.7940,79.6540,Tiruvarur
Sree Annapoorna,10.7950,79.6550,Tiruvarur
Junior Kuppanna,10.7960,79.6560,Tiruvarur
Traditional Filter Coffee Shops,10.7727,79.6368,Tiruvarur
Muthupet Fishing Experience,10.4000,79.5000,Tiruvarur
Mangrove Kayaking Tour,10.4000,79.5000,Tiruvarur
Paddy Fields Cycling Tour,10.7727,79.6368,Tiruvarur
Cauvery Delta Agricultural Tour,10.7727,79.6368,Tiruvarur
Tiruvarur Photography Walk,10.7727,79.6368,Tiruvarur
Temple Architecture Photography,10.7727,79.6368,Tiruvarur
Muthupet Sunrise Point,10.4000,79.5000,Tiruvarur
Traditional Craft Village Tour,10.7727,79.6368,Tiruvarur
Tiruvarur Cycle Heritage Tour,10.7727,79.6368,Tiruvarur
Muthupet Fish Market,10.4000,79.5000,Tiruvarur
Tiruvarur Music Festival Ground,10.7761,79.6335,Tiruvarur
